{"type":"FeatureCollection","features":[{"type":"Feature","properties":{"id":9120836,"osm_relation_id":9120836,"ward_name":"Tibet Road Ward","ward_ref":"12","admin_level":"10","source":"OpenStreetMap"},"geometry":{"type":"Polygon","coordinates":[[[88.6120596,27.3301312],[88.6133328,27.3305376],[88.6137307,27.3310502],[88.6137904,27.3317925],[88.6151233,27.3331356],[88.6148448,27.3338779],[88.6147453,27.3341253],[88.6146757,27.3350266],[88.6150437,27.3350973],[88.6148647,27.3356363],[88.614238,27.336193],[88.6141982,27.3369088],[88.6149791,27.3376908],[88.6147055,27.3372445],[88.6146707,27.3366613],[88.6150785,27.3360914],[88.6156455,27.335464],[88.6159788,27.3351106],[88.6161335,27.3348249],[88.6164214,27.3342932],[88.61669,27.3338911],[88.6166751,27.3333565],[88.6165308,27.3329677],[88.6166651,27.3321989],[88.6163766,27.331386],[88.6158395,27.3308027],[88.6154814,27.3296186],[88.6154217,27.3289293],[88.6150238,27.3279926],[88.6153023,27.3269322],[88.614984,27.3261015],[88.6145066,27.3259248],[88.6145004,27.3258341],[88.614487,27.3256907],[88.6144668,27.3253415],[88.6139097,27.3252178],[88.6137506,27.3255182],[88.6131935,27.3237508],[88.6132333,27.323415],[88.6134721,27.3228317],[88.6131339,27.3227433],[88.6121193,27.3223545],[88.6119402,27.3230792],[88.6124972,27.3240689],[88.6128156,27.3247406],[88.6130941,27.325748],[88.6128752,27.3266317],[88.6128157,27.3273615],[88.6127758,27.3278512],[88.6130941,27.3287173],[88.612537,27.3291768],[88.6125569,27.3299544],[88.6120596,27.3301312]]]}},{"type":"Feature","properties":{"id":9120837,"osm_relation_id":9120837,"ward_name":"Chandmari Ward","ward_ref":"6","admin_level":"10","source":"OpenStreetMap"},"geometry":{"type":"Polygon","coordinates":[[[88.6229865,27.3344788],[88.6229865,27.3346511],[88.6230164,27.3351415],[88.6229815,27.3354463],[88.6233894,27.3355745],[88.6239365,27.3356982],[88.6243344,27.3358263],[88.6246228,27.3353624],[88.6250425,27.3353497],[88.6254107,27.3355531],[88.6258287,27.3359597],[88.6263064,27.3362957],[88.6265353,27.336446],[88.6266548,27.3369676],[88.6267841,27.3375776],[88.6268538,27.3380462],[88.6272419,27.3382407],[88.6276201,27.338276],[88.6282173,27.3380285],[88.6286751,27.3377102],[88.6291727,27.3376395],[88.6295509,27.337781],[88.6297698,27.3381169],[88.6299943,27.3385346],[88.6298252,27.3388439],[88.630233,27.339078],[88.6309691,27.3396082],[88.631357,27.3399616],[88.6317897,27.3404388],[88.6321279,27.3409203],[88.6325209,27.341614],[88.632879,27.3422148],[88.6331177,27.3426743],[88.6333266,27.3430984],[88.6334907,27.3435623],[88.6337792,27.343982],[88.6340229,27.3445209],[88.634192,27.344839],[88.6343511,27.3451704],[88.6344755,27.345431],[88.6342964,27.3457358],[88.6339532,27.3459479],[88.6336946,27.3460362],[88.6333763,27.3462527],[88.6331525,27.3466282],[88.632869,27.3468535],[88.6325805,27.3470877],[88.6326303,27.3476708],[88.6327049,27.348033],[88.632879,27.3484704],[88.6330779,27.3487752],[88.6332321,27.3490491],[88.6331724,27.349884],[88.6330481,27.3502684],[88.6331227,27.3507897],[88.6330481,27.3511342],[88.6330729,27.3515716],[88.6330331,27.3519736],[88.6330033,27.3522607],[88.6329138,27.3526494],[88.6327994,27.3530293],[88.6326253,27.3533872],[88.632491,27.3536213],[88.6325358,27.3537671],[88.6322772,27.3539217],[88.6319986,27.3545004],[88.6318693,27.3547433],[88.6315659,27.355163],[88.6314018,27.3553662],[88.6308945,27.3555031],[88.6305364,27.3555959],[88.6299843,27.3555429],[88.6289896,27.3555075],[88.6284773,27.3553838],[88.628164,27.3552116],[88.627985,27.3550569],[88.627592,27.3550967],[88.6274578,27.3551895],[88.6272787,27.3554943],[88.6273533,27.3556754],[88.6270947,27.3560067],[88.6271444,27.3564263],[88.6275373,27.3568018],[88.6277263,27.3570359],[88.6278109,27.3573672],[88.6282386,27.3576632],[88.6285122,27.3580077],[88.6284972,27.3583479],[88.6289697,27.3589795],[88.6289299,27.3597835],[88.6292284,27.3598409],[88.6293577,27.3599425],[88.6293129,27.3601103],[88.6291935,27.3602296],[88.6290543,27.360636],[88.6287658,27.360742],[88.6286415,27.3610159],[88.6285868,27.3614973],[88.6287111,27.3619037],[88.6284873,27.3620892],[88.6285569,27.3623322],[88.62892,27.3624338],[88.6289001,27.3626149],[88.6285321,27.3629903],[88.6285072,27.3635027],[88.6278358,27.3629947],[88.6277164,27.3626635],[88.6274777,27.3625751],[88.6273881,27.3624426],[88.6274379,27.3620362],[88.6274627,27.361515],[88.6275075,27.3611793],[88.6273633,27.3609099],[88.6271593,27.3604372],[88.6274926,27.3596554],[88.6272439,27.3589442],[88.6274677,27.3581756],[88.6268659,27.357407],[88.6264382,27.3570934],[88.6263686,27.3564308],[88.6267565,27.355481],[88.6268162,27.3551806],[88.6266023,27.3547256],[88.6255728,27.3544915],[88.6252296,27.3536345],[88.6239265,27.3539923],[88.6241155,27.3532325],[88.6246726,27.3526406],[88.6244885,27.3521193],[88.6249461,27.3517173],[88.6243741,27.3510415],[88.624409,27.3502551],[88.6246726,27.3496676],[88.6241056,27.3492832],[88.6234789,27.3487973],[88.6230313,27.3481435],[88.6229617,27.3474234],[88.6229865,27.3470523],[88.6223847,27.3465531],[88.6214348,27.3461334],[88.6214547,27.3454089],[88.621211,27.3451704],[88.6212309,27.3447727],[88.621211,27.3442559],[88.6213701,27.3439643],[88.6209772,27.3435667],[88.6200919,27.3442382],[88.6196741,27.3440791],[88.6190524,27.3436197],[88.61857,27.342957],[88.6177643,27.3429261],[88.617252,27.3421309],[88.6170182,27.3414152],[88.6169387,27.3410573],[88.6166154,27.3406508],[88.6159738,27.3398954],[88.6159937,27.3392945],[88.6164164,27.3387953],[88.6158793,27.3382342],[88.6158544,27.3378145],[88.6158345,27.3374787],[88.6155361,27.3376952],[88.6149791,27.3376908],[88.6147055,27.3372445],[88.6146707,27.3366613],[88.6150785,27.3360914],[88.6156455,27.335464],[88.6159788,27.3351106],[88.6161335,27.3348249],[88.6164214,27.3342932],[88.61669,27.3338911],[88.6166751,27.3333565],[88.6165308,27.3329677],[88.6166651,27.3321989],[88.6170481,27.3324508],[88.617257,27.3329456],[88.6175653,27.333224],[88.6177792,27.3339972],[88.6181025,27.3342048],[88.6190524,27.3344611],[88.6197935,27.3347085],[88.6203406,27.3347969],[88.6206291,27.3348764],[88.621012,27.3343727],[88.621395,27.3343109],[88.6219222,27.3345892],[88.6224295,27.3345097],[88.6229865,27.3344788]]]}},{"type":"Feature","properties":{"id":9120838,"osm_relation_id":9120838,"ward_name":"Development Area","ward_ref":"7","admin_level":"10","source":"OpenStreetMap"},"geometry":{"type":"Polygon","coordinates":[[[88.6109853,27.3366613],[88.6115224,27.3368381],[88.6126365,27.3369529],[88.612915,27.3358572],[88.6137208,27.3352829],[88.6140718,27.3351887],[88.6146757,27.3350266],[88.6150437,27.3350973],[88.6148647,27.3356363],[88.614238,27.336193],[88.6141982,27.3369088],[88.6149791,27.3376908],[88.6155361,27.3376952],[88.6158345,27.3374787],[88.6158544,27.3378145],[88.6158793,27.3382342],[88.6164164,27.3387953],[88.6159937,27.3392945],[88.6159738,27.3398954],[88.6166154,27.3406508],[88.6169387,27.3410573],[88.6170182,27.3414152],[88.617252,27.3421309],[88.6177643,27.3429261],[88.61857,27.342957],[88.6190524,27.3436197],[88.6196741,27.3440791],[88.6200919,27.3442382],[88.6209772,27.3435667],[88.6213701,27.3439643],[88.621211,27.3442559],[88.6212309,27.3447727],[88.621211,27.3451704],[88.6205445,27.3452499],[88.6197587,27.3453206],[88.6186545,27.345568],[88.6182368,27.3454178],[88.6176996,27.3459302],[88.6171525,27.3459744],[88.6167248,27.3457623],[88.6158693,27.3457005],[88.6145464,27.3458065],[88.6138799,27.3456121],[88.612915,27.3456651],[88.6133129,27.3451792],[88.6133925,27.3447374],[88.6128752,27.3433414],[88.6121392,27.3431823],[88.6116418,27.342767],[88.6114727,27.342069],[88.6104979,27.3416802],[88.6078818,27.340779],[88.6079614,27.3395331],[88.6082797,27.3392002],[88.6085781,27.3388881],[88.6091351,27.3383402],[88.6094833,27.3377129],[88.6105675,27.3374831],[88.6111544,27.3371827],[88.6109853,27.3366613]]]}},{"type":"Feature","properties":{"id":9120839,"osm_relation_id":9120839,"ward_name":"DPH Ward","ward_ref":"8","admin_level":"10","source":"OpenStreetMap"},"geometry":{"type":"Polygon","coordinates":[[[88.6109853,27.3366613],[88.6115224,27.3368381],[88.6126365,27.3369529],[88.612915,27.3358572],[88.6137208,27.3352829],[88.6140718,27.3351887],[88.6146757,27.3350266],[88.6147453,27.3341253],[88.6148448,27.3338779],[88.6151233,27.3331356],[88.6137904,27.3317925],[88.6137307,27.3310502],[88.6133328,27.3305376],[88.6120596,27.3301312],[88.6118606,27.3296009],[88.6116907,27.3292211],[88.6115718,27.3292849],[88.6113832,27.3295037],[88.6111544,27.3299456],[88.6114727,27.3303432],[88.611612,27.3308999],[88.6113235,27.3310943],[88.6111444,27.3314567],[88.6115523,27.3316422],[88.6115224,27.3321459],[88.6110052,27.3325966],[88.6116816,27.3325259],[88.6122287,27.3327645],[88.6128255,27.3336746],[88.6133826,27.333763],[88.6138799,27.3341253],[88.6132831,27.3343727],[88.612915,27.3348852],[88.612358,27.3352475],[88.6113036,27.33576],[88.6109057,27.3361842],[88.6109853,27.3366613]]]}},{"type":"Feature","properties":{"id":9120840,"osm_relation_id":9120840,"ward_name":"Upper M G Marg","ward_ref":"11","admin_level":"10","source":"OpenStreetMap"},"geometry":{"type":"Polygon","coordinates":[[[88.6118606,27.3296009],[88.6120596,27.3301312],[88.6125569,27.3299544],[88.612537,27.3291768],[88.6130941,27.3287173],[88.6127758,27.3278512],[88.6128157,27.3273615],[88.6128752,27.3266317],[88.6130941,27.325748],[88.6128156,27.3247406],[88.6124972,27.3240689],[88.6119402,27.3230792],[88.6121193,27.3223545],[88.6131339,27.3227433],[88.6134721,27.3228317],[88.6132333,27.323415],[88.6142479,27.3233796],[88.6126365,27.3214884],[88.6121789,27.3214],[88.6104083,27.3219303],[88.6105591,27.3224547],[88.6107871,27.3229665],[88.6109654,27.3233443],[88.6116219,27.3244755],[88.6117413,27.3252885],[88.6118196,27.3256997],[88.6118827,27.3260842],[88.61198,27.3266317],[88.611985,27.3269454],[88.6113086,27.3269366],[88.6116219,27.3272503],[88.6116368,27.3278026],[88.6116366,27.3282883],[88.6117214,27.3288056],[88.6117672,27.3290675],[88.6118606,27.3296009]]]}},{"type":"Feature","properties":{"id":9120841,"osm_relation_id":9120841,"ward_name":"Lower M G Marg","ward_ref":"10","admin_level":"10","source":"OpenStreetMap"},"geometry":{"type":"Polygon","coordinates":[[[88.6126365,27.3214884],[88.6121789,27.3214],[88.6104083,27.3219303],[88.6105591,27.3224547],[88.6107871,27.3229665],[88.6109654,27.3233443],[88.6116219,27.3244755],[88.6117413,27.3252885],[88.6118196,27.3256997],[88.6118827,27.3260842],[88.61198,27.3266317],[88.611985,27.3269454],[88.6113086,27.3269366],[88.6109405,27.3270338],[88.6105874,27.3271575],[88.6104283,27.3271929],[88.610105,27.3266892],[88.6100453,27.3259689],[88.6101149,27.3256287],[88.6102243,27.3250366],[88.6100216,27.3242069],[88.6098215,27.3233708],[88.6095728,27.3224959],[88.6094334,27.3223089],[88.6090456,27.3217889],[88.6087173,27.3212233],[88.6087074,27.3205251],[88.6087571,27.319606],[88.6089796,27.320045],[88.6093776,27.3203457],[88.6097558,27.3204694],[88.6102136,27.3204783],[88.6106316,27.3208497],[88.6110496,27.320832],[88.6116866,27.3210884],[88.6120648,27.3210177],[88.6124628,27.3212033],[88.6126365,27.3214884]]]}},{"type":"Feature","properties":{"id":9120842,"osm_relation_id":9120842,"ward_name":"Syari-Tathangchen","ward_ref":"17","admin_level":"10","source":"OpenStreetMap"},"geometry":{"type":"MultiPolygon","coordinates":[[[[88.6299943,27.3385346],[88.6297698,27.3381169],[88.6295509,27.337781],[88.6291727,27.3376395],[88.6286751,27.3377102],[88.6282173,27.3380285],[88.6276201,27.338276],[88.6272419,27.3382407],[88.6268538,27.3380462],[88.6267841,27.3375776],[88.6266548,27.3369676],[88.6265353,27.336446],[88.6263064,27.3362957],[88.6258287,27.3359597],[88.6254107,27.3355531],[88.6250425,27.3353497],[88.6246228,27.3353624],[88.6250406,27.3352166],[88.6253888,27.335168],[88.6258314,27.3353359],[88.6264481,27.3353315],[88.6269604,27.3355259],[88.6272638,27.3357777],[88.6274478,27.3361223],[88.6275224,27.3362858],[88.6278855,27.3360781],[88.6284326,27.3360119],[88.6287161,27.3361974],[88.6290244,27.3361665],[88.6297058,27.3361577],[88.629865,27.3363963],[88.6299644,27.3367541],[88.6300341,27.3370722],[88.6302629,27.3376112],[88.6303673,27.3380265],[88.6301286,27.3381812],[88.6299943,27.3385346]]],[[[88.592593,27.2955739],[88.592782,27.2968556],[88.5920459,27.2970854],[88.5914889,27.2981108],[88.591101,27.2987914],[88.5910512,27.2995251],[88.5909418,27.3003471],[88.590534,27.3011338],[88.5903251,27.3017172],[88.5903251,27.3022564],[88.5908921,27.3028221],[88.5916779,27.303264],[88.5921752,27.3037855],[88.5923841,27.3042275],[88.5924438,27.3048639],[88.5926527,27.3053323],[88.5934783,27.3056063],[88.593727,27.3060748],[88.5942343,27.3060217],[88.5945029,27.306225],[88.5938762,27.3065344],[88.5941547,27.3070117],[88.5947913,27.3075243],[88.595806,27.3080281],[88.596741,27.3083816],[88.5975368,27.3091506],[88.5975765,27.3096544],[88.5980441,27.3099284],[88.5989294,27.310388],[88.599188,27.3110862],[88.599566,27.3118816],[88.5998345,27.3124031],[88.6002125,27.3130306],[88.6005408,27.3126594],[88.6007994,27.3131985],[88.6012172,27.3138526],[88.6019433,27.3141354],[88.6022418,27.3140116],[88.6026993,27.3143121],[88.6026396,27.3147894],[88.6024407,27.3151252],[88.6021423,27.3151694],[88.602202,27.3155848],[88.6028983,27.3162035],[88.603505,27.3166277],[88.6038333,27.3176794],[88.6047086,27.3179622],[88.6041715,27.3174496],[88.6043605,27.3171049],[88.604639,27.3173966],[88.6053751,27.3177324],[88.6061908,27.3178915],[88.6071755,27.3180329],[88.6077027,27.318572],[88.6083891,27.3191199],[88.6087571,27.319606],[88.6089796,27.320045],[88.6093776,27.3203457],[88.6097558,27.3204694],[88.6102136,27.3204783],[88.6106316,27.3208497],[88.6110496,27.320832],[88.6116866,27.3210884],[88.6120648,27.3210177],[88.6124628,27.3212033],[88.6126365,27.3214884],[88.6142479,27.3233796],[88.6132333,27.323415],[88.6131935,27.3237508],[88.6137506,27.3255182],[88.6139097,27.3252178],[88.6144668,27.3253415],[88.614487,27.3256907],[88.6145004,27.3258341],[88.6145066,27.3259248],[88.614984,27.3261015],[88.6153023,27.3269322],[88.6150238,27.3279926],[88.6154217,27.3289293],[88.6154814,27.3296186],[88.6158395,27.3308027],[88.6163766,27.331386],[88.6166651,27.3321989],[88.6170481,27.3324508],[88.617257,27.3329456],[88.6175653,27.333224],[88.6177792,27.3339972],[88.6181025,27.3342048],[88.6190524,27.3344611],[88.6197935,27.3347085],[88.6203406,27.3347969],[88.6206291,27.3348764],[88.621012,27.3343727],[88.621395,27.3343109],[88.6219222,27.3345892],[88.6224295,27.3345097],[88.6229865,27.3344788],[88.6231059,27.3338337],[88.6229716,27.3334581],[88.6225936,27.3333344],[88.6221211,27.3331886],[88.6215492,27.3330914],[88.6209673,27.3330252],[88.6205992,27.3330693],[88.6203157,27.3331842],[88.6201416,27.3334714],[88.6198233,27.3334714],[88.6195747,27.3332991],[88.619321,27.3335907],[88.6189132,27.3335377],[88.6186645,27.3333388],[88.6182766,27.3331179],[88.6180826,27.3328573],[88.6182865,27.3326452],[88.6183114,27.3324861],[88.6182467,27.332305],[88.6180179,27.3320664],[88.6180726,27.3318985],[88.6178687,27.3314301],[88.6182218,27.331545],[88.6183313,27.3313153],[88.6186446,27.3309971],[88.6184854,27.3308469],[88.6184904,27.3303697],[88.6184059,27.3299986],[88.6183213,27.3296274],[88.6179035,27.3294065],[88.6178488,27.3290133],[88.6178588,27.3286245],[88.6179433,27.3283549],[88.6179483,27.3280456],[88.6177643,27.3278115],[88.6177643,27.3275022],[88.6178439,27.3272989],[88.6181124,27.3269808],[88.6180527,27.3264064],[88.6181821,27.325938],[88.6182169,27.3255757],[88.6182964,27.3252222],[88.6182019,27.3250057],[88.6179582,27.3249924],[88.6176399,27.3249615],[88.6174211,27.3245771],[88.6170978,27.3241308],[88.6168342,27.3234945],[88.616506,27.3231189],[88.616302,27.3228361],[88.6160534,27.3227345],[88.6158594,27.3225798],[88.6156853,27.3221998],[88.6155311,27.3218817],[88.6151333,27.3218728],[88.6147801,27.3219966],[88.6145414,27.3221203],[88.6142579,27.3221159],[88.6141037,27.3218905],[88.6138998,27.3216386],[88.6135367,27.3210465],[88.6131587,27.3206268],[88.6126863,27.3202467],[88.6123729,27.3201363],[88.6116319,27.3201849],[88.6111246,27.3201274],[88.6106869,27.3200921],[88.6103139,27.3199242],[88.6100751,27.3199463],[88.6096275,27.3196723],[88.6091699,27.319332],[88.6091849,27.3189343],[88.60915,27.318488],[88.6090705,27.3182273],[88.6088317,27.3181169],[88.6084637,27.3179313],[88.6084488,27.3176308],[88.6083244,27.3173038],[88.6086626,27.3170917],[88.6088118,27.3167205],[88.608588,27.3164774],[88.608399,27.3162432],[88.6083742,27.3158809],[88.6083244,27.315492],[88.6083841,27.3150987],[88.608409,27.3147585],[88.6084189,27.3144889],[88.6083841,27.3142945],[88.6080459,27.314458],[88.6076431,27.3144403],[88.6076381,27.3142591],[88.6077425,27.3138791],[88.6074242,27.313583],[88.6073844,27.3133532],[88.6072551,27.3130041],[88.607096,27.3126152],[88.6070214,27.3121424],[88.6068274,27.3121114],[88.6064892,27.3123147],[88.6061311,27.3122484],[88.6060615,27.3119303],[88.6062007,27.3115811],[88.606519,27.3111834],[88.6067031,27.3108962],[88.60727,27.3107724],[88.6076679,27.3105161],[88.6077525,27.310167],[88.6079713,27.3098223],[88.6081802,27.3094644],[88.6084786,27.3091329],[88.6085035,27.3088103],[88.6082648,27.3086114],[88.6078022,27.308554],[88.6071009,27.3085407],[88.6065141,27.3084877],[88.6058277,27.3085319],[88.6052756,27.3084347],[88.6047634,27.308417],[88.604634,27.3082844],[88.6043953,27.30828],[88.6041516,27.3079795],[88.6038681,27.3076613],[88.6036145,27.3073298],[88.6034155,27.3070249],[88.6033658,27.3066095],[88.6033061,27.3062206],[88.6032464,27.3058715],[88.6032962,27.3055489],[88.6031668,27.3050362],[88.6029679,27.3047357],[88.6022617,27.3046296],[88.6015355,27.3046031],[88.6007596,27.3046782],[88.6002175,27.3048064],[88.5998893,27.304444],[88.5997052,27.3040904],[88.5996257,27.3036573],[88.5997649,27.3032684],[88.5999042,27.3027558],[88.599944,27.3024243],[88.6001479,27.3019735],[88.6001479,27.3012796],[88.6001081,27.3009438],[88.5996157,27.3005814],[88.5992974,27.3002587],[88.5990139,27.2998521],[88.5987951,27.2994853],[88.5984817,27.2995118],[88.5981684,27.2994411],[88.5979098,27.2991759],[88.5975567,27.2987516],[88.5972383,27.2982743],[88.5968604,27.2977572],[88.5963779,27.2973418],[88.5957413,27.2970412],[88.5950599,27.2966346],[88.5938862,27.296091],[88.5934734,27.2959319],[88.592981,27.2956844],[88.592593,27.2955739]]]]}},{"type":"Feature","properties":{"id":9120843,"osm_relation_id":9120843,"ward_name":"Burtuk Ward","ward_ref":null,"admin_level":"10","source":"OpenStreetMap"},"geometry":{"type":"Polygon","coordinates":[[[88.621211,27.3451704],[88.6214547,27.3454089],[88.6214348,27.3461334],[88.6223847,27.3465531],[88.6229865,27.3470523],[88.6229617,27.3474234],[88.6230313,27.3481435],[88.6234789,27.3487973],[88.6241056,27.3492832],[88.6246726,27.3496676],[88.624409,27.3502551],[88.6243741,27.3510415],[88.6249461,27.3517173],[88.6244885,27.3521193],[88.6246726,27.3526406],[88.6241155,27.3532325],[88.6239265,27.3539923],[88.6252296,27.3536345],[88.6255728,27.3544915],[88.6266023,27.3547256],[88.6268162,27.3551806],[88.6267565,27.355481],[88.6263686,27.3564308],[88.6264382,27.3570934],[88.6268659,27.357407],[88.6274677,27.3581756],[88.6272439,27.3589442],[88.6274926,27.3596554],[88.6271593,27.3604372],[88.6273633,27.3609099],[88.6275075,27.3611793],[88.6274627,27.361515],[88.6274379,27.3620362],[88.6273881,27.3624426],[88.6274777,27.3625751],[88.6277164,27.3626635],[88.6278358,27.3629947],[88.6273782,27.3630522],[88.6270698,27.3635999],[88.6268211,27.3640858],[88.6268709,27.3644215],[88.6265227,27.3658702],[88.6262542,27.3662854],[88.625528,27.3665681],[88.6251998,27.3670628],[88.6246626,27.3673455],[88.6242747,27.3672395],[88.624016,27.3674427],[88.6235485,27.3678402],[88.6231208,27.3682642],[88.6224643,27.3681229],[88.6219669,27.36822],[88.6214795,27.3682289],[88.620833,27.3681229],[88.6200869,27.3678932],[88.6194802,27.3681582],[88.6190425,27.3685999],[88.618764,27.3688472],[88.6182567,27.3688207],[88.6180179,27.3689356],[88.6177195,27.3692183],[88.6172818,27.3694126],[88.6167745,27.3698278],[88.6165557,27.3701105],[88.6158395,27.3703578],[88.6153819,27.3704638],[88.6147553,27.3702871],[88.6139197,27.3699249],[88.6137407,27.3697748],[88.6133826,27.3697129],[88.6131737,27.3694744],[88.6126365,27.3694214],[88.6121193,27.3692448],[88.6114329,27.3689621],[88.6108958,27.3686794],[88.6102989,27.3684851],[88.6105377,27.3681229],[88.6098314,27.3676458],[88.6094136,27.3671865],[88.608787,27.3671335],[88.608031,27.3670805],[88.6078122,27.3665681],[88.608777,27.3662766],[88.6094236,27.3659674],[88.6098812,27.3657731],[88.6103885,27.3654815],[88.6105576,27.3650133],[88.6110251,27.364448],[88.6115523,27.3636794],[88.6115523,27.3629992],[88.6117114,27.3621157],[88.6118706,27.361515],[88.6122187,27.3606934],[88.6125072,27.3602429],[88.6124873,27.3598453],[88.6120695,27.3596421],[88.6114926,27.3594389],[88.6109057,27.3594301],[88.6105576,27.3590944],[88.6098812,27.3590679],[88.609543,27.3587145],[88.6093142,27.3579017],[88.6089362,27.3576102],[88.608787,27.3574445],[88.6088044,27.3572347],[88.6086278,27.3569719],[88.6083791,27.3568879],[88.6080036,27.3569697],[88.607658,27.3568504],[88.6072949,27.3566538],[88.6070263,27.3567797],[88.6064693,27.3564087],[88.6058327,27.3557726],[88.6055939,27.3551895],[88.6052955,27.3547919],[88.6047683,27.3543502],[88.6051264,27.3539438],[88.6052756,27.353502],[88.6052458,27.3526274],[88.6050667,27.3518322],[88.6044102,27.351788],[88.6038134,27.3513374],[88.6031867,27.3508692],[88.6028883,27.3503832],[88.6031867,27.3501889],[88.6034205,27.35037],[88.6040074,27.3504583],[88.6047087,27.3506969],[88.6051115,27.3508692],[88.6053602,27.350666],[88.605584,27.3502021],[88.6058426,27.3499945],[88.6063549,27.3500431],[88.6066682,27.350127],[88.6067578,27.3499282],[88.6071656,27.3497427],[88.6075834,27.3493937],[88.607847,27.3490933],[88.608031,27.3488812],[88.60822,27.3487045],[88.6084886,27.3485808],[88.6085781,27.3485013],[88.6088069,27.3485278],[88.608966,27.3482628],[88.6091252,27.3481037],[88.6092545,27.3478387],[88.6094335,27.3475206],[88.6095827,27.3472909],[88.6099707,27.3469905],[88.6103785,27.3469286],[88.6107366,27.3470435],[88.6111345,27.3470347],[88.6114628,27.3468138],[88.6118109,27.3466106],[88.6121789,27.3463013],[88.6125271,27.3459302],[88.612915,27.3456651],[88.6138799,27.3456121],[88.6145464,27.3458065],[88.6158693,27.3457005],[88.6167248,27.3457623],[88.6171525,27.3459744],[88.6176996,27.3459302],[88.6182368,27.3454178],[88.6186545,27.345568],[88.6197587,27.3453206],[88.6205445,27.3452499],[88.621211,27.3451704]]]}},{"type":"Feature","properties":{"id":9120844,"osm_relation_id":9120844,"ward_name":"Lower Sichey","ward_ref":"3","admin_level":"10","source":"OpenStreetMap"},"geometry":{"type":"Polygon","coordinates":[[[88.5956007,27.3282459],[88.5959054,27.3287349],[88.5960148,27.3290265],[88.5956369,27.3295479],[88.5955374,27.3301488],[88.5959452,27.3307851],[88.5958358,27.3315627],[88.595617,27.332031],[88.5958159,27.3337012],[88.5956866,27.3352033],[88.5954777,27.3374036],[88.5953981,27.3378719],[88.5952489,27.3381282],[88.5943537,27.3390913],[88.5936275,27.3395508],[88.5941149,27.3411324],[88.5939956,27.3422104],[88.5944929,27.3432884],[88.5952489,27.3436153],[88.5958756,27.3440659],[88.5962834,27.3447462],[88.5971389,27.3450113],[88.597686,27.3453471],[88.5979645,27.3459302],[88.598064,27.3464427],[88.5979943,27.3469816],[88.5977158,27.347927],[88.5985315,27.3484748],[88.5993471,27.3489343],[88.5992974,27.3495527],[88.6000036,27.3495527],[88.6006801,27.3493672],[88.6013962,27.349482],[88.602013,27.3496676],[88.6023611,27.3496676],[88.6028286,27.3499061],[88.6031867,27.3501889],[88.6034205,27.35037],[88.6040074,27.3504583],[88.6047087,27.3506969],[88.6051115,27.3508692],[88.6053602,27.350666],[88.605584,27.3502021],[88.6058426,27.3499945],[88.6063549,27.3500431],[88.6066682,27.350127],[88.6067578,27.3499282],[88.6071656,27.3497427],[88.6075834,27.3493937],[88.607847,27.3490933],[88.608031,27.3488812],[88.60822,27.3487045],[88.6084886,27.3485808],[88.6085781,27.3485013],[88.6088069,27.3485278],[88.608966,27.3482628],[88.6091252,27.3481037],[88.6092545,27.3478387],[88.6094335,27.3475206],[88.6095827,27.3472909],[88.6099707,27.3469905],[88.6103785,27.3469286],[88.6107366,27.3470435],[88.6111345,27.3470347],[88.6114628,27.3468138],[88.6118109,27.3466106],[88.6121789,27.3463013],[88.6125271,27.3459302],[88.6121988,27.3459302],[88.6117711,27.3460627],[88.6111047,27.3461864],[88.6107068,27.3460716],[88.6104581,27.345674],[88.6097518,27.3447021],[88.6093042,27.3446932],[88.6084786,27.345082],[88.6078022,27.3455061],[88.6073148,27.3461688],[88.6068871,27.3463543],[88.6062505,27.3463278],[88.6060018,27.3459921],[88.6061908,27.3452675],[88.6062405,27.3448346],[88.6058426,27.3441278],[88.6056039,27.3436506],[88.6056735,27.3429173],[88.6057233,27.3422016],[88.6062306,27.3416096],[88.6063637,27.3409852],[88.6063698,27.3404255],[88.6064196,27.3398335],[88.6064792,27.3390294],[88.6061609,27.3389322],[88.6061709,27.3398159],[88.6059321,27.3404432],[88.6055761,27.3406664],[88.6053751,27.3409469],[88.6052789,27.3412023],[88.6051818,27.341346],[88.604838,27.3416714],[88.6045395,27.3428466],[88.6044301,27.343253],[88.6046589,27.3439687],[88.6046589,27.344384],[88.6043903,27.3443133],[88.6042809,27.3436153],[88.603893,27.3431912],[88.6041317,27.342502],[88.6042013,27.3422369],[88.6039029,27.341583],[88.6042411,27.3408232],[88.6046092,27.3402842],[88.6050468,27.3394978],[88.6051563,27.3390383],[88.6048678,27.3381635],[88.6049374,27.3377747],[88.6047683,27.337165],[88.6051463,27.3367851],[88.6056536,27.3365995],[88.6058625,27.3361488],[88.6060416,27.335707],[88.6065688,27.3353271],[88.6071258,27.3349559],[88.6075237,27.3350178],[88.6078917,27.3349383],[88.6080907,27.334576],[88.60821,27.3342844],[88.6082498,27.3339839],[88.6085383,27.3337277],[88.6084786,27.3334095],[88.6079813,27.3331091],[88.6075137,27.3329412],[88.6072054,27.3324817],[88.6066881,27.3321459],[88.6065489,27.3317394],[88.6063499,27.3311562],[88.6062703,27.3305288],[88.6065986,27.330087],[88.607086,27.3295656],[88.6075933,27.3291768],[88.6082896,27.3288498],[88.6081802,27.3283903],[88.6081305,27.3274447],[88.6079713,27.3269233],[88.6079514,27.3265522],[88.6080011,27.3260043],[88.6078753,27.3253409],[88.6078221,27.3250322],[88.6077664,27.3247664],[88.6076629,27.3242722],[88.6075535,27.323035],[88.6076132,27.322381],[88.6073874,27.3220391],[88.5956007,27.3282459]]]}},{"type":"Feature","properties":{"id":9120845,"osm_relation_id":9120845,"ward_name":"Upper Sichey","ward_ref":"5","admin_level":"10","source":"OpenStreetMap"},"geometry":{"type":"Polygon","coordinates":[[[88.6125271,27.3459302],[88.6121988,27.3459302],[88.6117711,27.3460627],[88.6111047,27.3461864],[88.6107068,27.3460716],[88.6104581,27.345674],[88.6097518,27.3447021],[88.6093042,27.3446932],[88.6084786,27.345082],[88.6078022,27.3455061],[88.6073148,27.3461688],[88.6068871,27.3463543],[88.6062505,27.3463278],[88.6060018,27.3459921],[88.6061908,27.3452675],[88.6062405,27.3448346],[88.6058426,27.3441278],[88.6056039,27.3436506],[88.6056735,27.3429173],[88.6057233,27.3422016],[88.6062306,27.3416096],[88.6063637,27.3409852],[88.6063698,27.3404255],[88.6064196,27.3398335],[88.6064792,27.3390294],[88.6061609,27.3389322],[88.6061709,27.3398159],[88.6059321,27.3404432],[88.6055761,27.3406664],[88.6053751,27.3409469],[88.6052789,27.3412023],[88.6051818,27.341346],[88.604838,27.3416714],[88.6045395,27.3428466],[88.6044301,27.343253],[88.6046589,27.3439687],[88.6046589,27.344384],[88.6043903,27.3443133],[88.6042809,27.3436153],[88.603893,27.3431912],[88.6041317,27.342502],[88.6042013,27.3422369],[88.6039029,27.341583],[88.6042411,27.3408232],[88.6046092,27.3402842],[88.6050468,27.3394978],[88.6051563,27.3390383],[88.6048678,27.3381635],[88.6049374,27.3377747],[88.6047683,27.337165],[88.6051463,27.3367851],[88.6056536,27.3365995],[88.6058625,27.3361488],[88.6060416,27.335707],[88.6065688,27.3353271],[88.6071258,27.3349559],[88.6075237,27.3350178],[88.6078917,27.3349383],[88.6080907,27.334576],[88.60821,27.3342844],[88.6082498,27.3339839],[88.6085383,27.3337277],[88.6084786,27.3334095],[88.6088004,27.3332456],[88.6089597,27.3329892],[88.6093279,27.3329008],[88.6099449,27.332777],[88.6106018,27.3327858],[88.6110052,27.3325966],[88.6116816,27.3325259],[88.6122287,27.3327645],[88.6128255,27.3336746],[88.6133826,27.333763],[88.6138799,27.3341253],[88.6132831,27.3343727],[88.612915,27.3348852],[88.612358,27.3352475],[88.6113036,27.33576],[88.6109057,27.3361842],[88.6109853,27.3366613],[88.6111544,27.3371827],[88.6105675,27.3374831],[88.6094833,27.3377129],[88.6091351,27.3383402],[88.6085781,27.3388881],[88.6082797,27.3392002],[88.6079614,27.3395331],[88.6078818,27.340779],[88.6104979,27.3416802],[88.6114727,27.342069],[88.6116418,27.342767],[88.6121392,27.3431823],[88.6128752,27.3433414],[88.6133925,27.3447374],[88.6133129,27.3451792],[88.612915,27.3456651],[88.6125271,27.3459302]]]}},{"type":"Feature","properties":{"id":9120846,"osm_relation_id":9120846,"ward_name":"Arithang","ward_ref":"9","admin_level":"10","source":"OpenStreetMap"},"geometry":{"type":"Polygon","coordinates":[[[88.6118606,27.3296009],[88.6117672,27.3290675],[88.6117214,27.3288056],[88.6116366,27.3282883],[88.6116368,27.3278026],[88.6116219,27.3272503],[88.6113086,27.3269366],[88.6109405,27.3270338],[88.6105874,27.3271575],[88.6104283,27.3271929],[88.610105,27.3266892],[88.6100453,27.3259689],[88.6101149,27.3256287],[88.6102243,27.3250366],[88.6100216,27.3242069],[88.6100614,27.3244931],[88.6100204,27.3248378],[88.609732,27.3246964],[88.6088566,27.3245727],[88.6083394,27.3246434],[88.6077664,27.3247664],[88.6078221,27.3250322],[88.6078753,27.3253409],[88.6080011,27.3260043],[88.6079514,27.3265522],[88.6079713,27.3269233],[88.6081305,27.3274447],[88.6081802,27.3283903],[88.6082896,27.3288498],[88.6075933,27.3291768],[88.607086,27.3295656],[88.6065986,27.330087],[88.6062703,27.3305288],[88.6063499,27.3311562],[88.6065489,27.3317394],[88.6066881,27.3321459],[88.6072054,27.3324817],[88.6075137,27.3329412],[88.6079813,27.3331091],[88.6084786,27.3334095],[88.6088004,27.3332456],[88.6089597,27.3329892],[88.6093279,27.3329008],[88.6099449,27.332777],[88.6106018,27.3327858],[88.6110052,27.3325966],[88.6115224,27.3321459],[88.6115523,27.3316422],[88.6111444,27.3314567],[88.6113235,27.3310943],[88.611612,27.3308999],[88.6114727,27.3303432],[88.6111544,27.3299456],[88.6113832,27.3295037],[88.6115718,27.3292849],[88.6116907,27.3292211],[88.6118606,27.3296009]]]}},{"type":"Feature","properties":{"id":9120847,"osm_relation_id":9120847,"ward_name":"Tadong Ward","ward_ref":"15","admin_level":"10","source":"OpenStreetMap"},"geometry":{"type":"Polygon","coordinates":[[[88.6021721,27.3146126],[88.6019433,27.3141354],[88.6012172,27.3138526],[88.6007994,27.3131985],[88.6005408,27.3126594],[88.6002125,27.3130306],[88.5998345,27.3124031],[88.599566,27.3118816],[88.599188,27.3110862],[88.5989294,27.310388],[88.5980441,27.3099284],[88.5975765,27.3096544],[88.5975368,27.3091506],[88.596741,27.3083816],[88.595806,27.3080281],[88.5947913,27.3075243],[88.5941547,27.3070117],[88.5938762,27.3065344],[88.5945029,27.306225],[88.5942343,27.3060217],[88.593727,27.3060748],[88.5918072,27.306446],[88.5905937,27.306773],[88.5893204,27.3071089],[88.5888297,27.3069965],[88.5883555,27.3068879],[88.5875498,27.3068879],[88.586764,27.3065432],[88.5863562,27.3065079],[88.585617,27.3063047],[88.5853913,27.3062427],[88.5849636,27.3059245],[88.5844662,27.3054295],[88.5840186,27.3059775],[88.5834616,27.30672],[88.5835809,27.3075331],[88.5837699,27.3080104],[88.5843568,27.3086291],[88.5848939,27.3099991],[88.5850133,27.3112983],[88.5848144,27.3124561],[88.5857593,27.3129511],[88.5859384,27.3129864],[88.5862666,27.3137465],[88.5860975,27.3148513],[88.5864059,27.3152401],[88.5868765,27.314787],[88.5869033,27.3151783],[88.5874684,27.3150355],[88.5878347,27.3154014],[88.588083,27.3156029],[88.5885943,27.3160974],[88.5891513,27.3163184],[88.5896288,27.3168044],[88.5897283,27.3173524],[88.5904017,27.3170762],[88.5904643,27.3172817],[88.5912601,27.3171933],[88.591847,27.3168044],[88.5923245,27.3163272],[88.5930506,27.3160709],[88.5931998,27.3156644],[88.5942144,27.3150899],[88.595229,27.3150987],[88.5960845,27.3145419],[88.5966714,27.314595],[88.5970991,27.3147806],[88.5973577,27.3147187],[88.5978352,27.3148601],[88.5983723,27.3146391],[88.5986309,27.3147452],[88.5995361,27.3146303],[88.5999539,27.3146126],[88.600879,27.3146126],[88.6011177,27.314701],[88.6021721,27.3146126]]]}},{"type":"Feature","properties":{"id":9120848,"osm_relation_id":9120848,"ward_name":"Daragaon Ward","ward_ref":"14","admin_level":"10","source":"OpenStreetMap"},"geometry":{"type":"Polygon","coordinates":[[[88.6073874,27.3220391],[88.603423,27.3184662],[88.6008847,27.3161785],[88.6021721,27.3146126],[88.6011177,27.314701],[88.600879,27.3146126],[88.5999539,27.3146126],[88.5995361,27.3146303],[88.5986309,27.3147452],[88.5983723,27.3146391],[88.5978352,27.3148601],[88.5973577,27.3147187],[88.5970991,27.3147806],[88.5966714,27.314595],[88.5960845,27.3145419],[88.595229,27.3150987],[88.5942144,27.3150899],[88.5931998,27.3156644],[88.5930506,27.3160709],[88.5923245,27.3163272],[88.591847,27.3168044],[88.5912601,27.3171933],[88.5915575,27.3175949],[88.5917575,27.3174584],[88.5917177,27.3179268],[88.5918059,27.3182063],[88.5917276,27.3186339],[88.5916843,27.3187166],[88.5918669,27.3193497],[88.5914491,27.3199949],[88.5916679,27.3204102],[88.5921752,27.3206223],[88.5928218,27.3210554],[88.5931998,27.3214707],[88.5939757,27.321621],[88.593916,27.3220275],[88.5936176,27.3227698],[88.5936872,27.3238038],[88.5940055,27.3243517],[88.5945427,27.3248643],[88.5949704,27.3255801],[88.5951892,27.3263843],[88.5956965,27.3267996],[88.5955175,27.3273033],[88.5955175,27.3277982],[88.5956007,27.3282459],[88.6073874,27.3220391]]]}},{"type":"Feature","properties":{"id":9120849,"osm_relation_id":9120849,"ward_name":"Deorali Ward","ward_ref":"13","admin_level":"10","source":"OpenStreetMap"},"geometry":{"type":"Polygon","coordinates":[[[88.6087571,27.319606],[88.6087074,27.3205251],[88.6087173,27.3212233],[88.6090456,27.3217889],[88.6094334,27.3223089],[88.6095728,27.3224959],[88.6098215,27.3233708],[88.6100216,27.3242069],[88.6100614,27.3244931],[88.6100204,27.3248378],[88.609732,27.3246964],[88.6088566,27.3245727],[88.6083394,27.3246434],[88.6077664,27.3247664],[88.6076629,27.3242722],[88.6075535,27.323035],[88.6076132,27.322381],[88.6073874,27.3220391],[88.603423,27.3184662],[88.6008847,27.3161785],[88.6021721,27.3146126],[88.6019433,27.3141354],[88.6022418,27.3140116],[88.6026993,27.3143121],[88.6026396,27.3147894],[88.6024407,27.3151252],[88.6021423,27.3151694],[88.602202,27.3155848],[88.6028983,27.3162035],[88.603505,27.3166277],[88.6038333,27.3176794],[88.6047086,27.3179622],[88.6041715,27.3174496],[88.6043605,27.3171049],[88.604639,27.3173966],[88.6053751,27.3177324],[88.6061908,27.3178915],[88.6071755,27.3180329],[88.6077027,27.318572],[88.6083891,27.3191199],[88.6087571,27.319606]]]}},{"type":"Feature","properties":{"id":9120850,"osm_relation_id":9120850,"ward_name":"Ranipool Ward","ward_ref":"16","admin_level":"10","source":"OpenStreetMap"},"geometry":{"type":"Polygon","coordinates":[[[88.5888297,27.3069965],[88.5883555,27.3068879],[88.5875498,27.3068879],[88.586764,27.3065432],[88.5863562,27.3065079],[88.585617,27.3063047],[88.5853913,27.3062427],[88.5849636,27.3059245],[88.5844662,27.3054295],[88.5846851,27.3050495],[88.5845358,27.3045368],[88.5842971,27.3038739],[88.5839689,27.3033347],[88.5844165,27.3028663],[88.5853018,27.3024773],[88.5859881,27.3023094],[88.5866745,27.302],[88.5869232,27.301178],[88.5866944,27.3005593],[88.5859583,27.3001085],[88.5855703,27.2988621],[88.5851426,27.2977926],[88.5854012,27.2967495],[88.5864954,27.2955739],[88.5873044,27.2950495],[88.5879387,27.294494],[88.5883655,27.2939209],[88.5895094,27.2933021],[88.5903011,27.2927148],[88.5910453,27.2920844],[88.591511,27.2915959],[88.5917933,27.2915122],[88.5927674,27.2918166],[88.5935082,27.2919319],[88.5939091,27.2918689],[88.5941326,27.2917616],[88.5943799,27.2915499],[88.5945526,27.2909949],[88.5943622,27.2904778],[88.5945427,27.2899606],[88.5940354,27.2894832],[88.5937966,27.2889086],[88.5944034,27.2886788],[88.5953782,27.2894567],[88.5955871,27.2900402],[88.5955473,27.2905882],[88.5953384,27.2914546],[88.5949803,27.2925684],[88.5941249,27.2933551],[88.5930208,27.2942833],[88.5925632,27.2949374],[88.592593,27.2955739],[88.592782,27.2968556],[88.5920459,27.2970854],[88.5914889,27.2981108],[88.591101,27.2987914],[88.5910512,27.2995251],[88.5909418,27.3003471],[88.590534,27.3011338],[88.5903251,27.3017172],[88.5903251,27.3022564],[88.5908921,27.3028221],[88.5916779,27.303264],[88.5921752,27.3037855],[88.5923841,27.3042275],[88.5924438,27.3048639],[88.5926527,27.3053323],[88.5934783,27.3056063],[88.593727,27.3060748],[88.5918072,27.306446],[88.5905937,27.306773],[88.5893204,27.3071089],[88.5888297,27.3069965]]]}}]}