{"type":"FeatureCollection","features":[{"type":"Feature","id":9547,"geometry":{"type":"Polygon","coordinates":[[[77.572600250537505,34.147381920714878],[77.572375532477579,34.14746370083855],[77.572284570868561,34.148045198934703],[77.572345219726671,34.148106724988168],[77.572969058368983,34.148453099350625],[77.573010040410566,34.148487028142966],[77.573596813665944,34.148830300100464],[77.573460053248752,34.148950928928151],[77.572956489141532,34.149087066226166],[77.572297526371599,34.149296555659838],[77.57174503911564,34.149332981279159],[77.570405345599823,34.148771335691492],[77.570036594362236,34.148665107614725],[77.569484406245266,34.148567663054834],[77.569045160614095,34.148505934380054],[77.568583813731919,34.148403052907312],[77.568216393797556,34.148268164220646],[77.566798727413413,34.147586944811906],[77.566497533078433,34.147408710661587],[77.566083422308864,34.147259052624861],[77.565118803271915,34.147166936196093],[77.564106311216875,34.14722693511203],[77.561638785556795,34.147900951280342],[77.561429705369363,34.148118637064471],[77.5610228763435,34.148611387257688],[77.560457415618231,34.148325606427719],[77.559306936047349,34.147541863298748],[77.559001679530624,34.147381851574714],[77.558738642933989,34.147286961492789],[77.558590263706904,34.147270216173119],[77.558468862684478,34.147286961492789],[77.558347461662024,34.147376269808149],[77.558145126025764,34.147538139402165],[77.557976513145235,34.147677683188526],[77.55783487757104,34.147722336408044],[77.557699987446284,34.147638610951603],[77.556614120100491,34.146940893109281],[77.554767175791525,34.145951702895957],[77.557990423557413,34.142991002413325],[77.558327228008579,34.142715389782587],[77.558516074542567,34.142614912378015],[77.558806088445493,34.142631658620381],[77.559278204331278,34.142793538048963],[77.562994433152056,34.144116471483571],[77.564179902103263,34.144562860107897],[77.565929062098647,34.14524885908132],[77.56640921341463,34.144925066202106],[77.567079054782639,34.144414843812612],[77.566863443843104,34.143605052419183],[77.566654325926422,34.143118901892464],[77.56886901715653,34.142192951178011],[77.569266541432683,34.142610214299523],[77.569972090833247,34.143198003669568],[77.57112597232414,34.142673087043285],[77.571177420637071,34.142647065100981],[77.571692161583101,34.142894238285713],[77.572121922801529,34.143197676538662],[77.573513947674229,34.144018946586066],[77.575080870939459,34.145034198488396],[77.575147029165208,34.145070798429039],[77.574921360687725,34.145175367901359],[77.573949671011221,34.14603532594073],[77.573760168707096,34.146275910404029],[77.573509551319219,34.14664923263777],[77.572936685781073,34.147097833753847],[77.572600250537505,34.147381920714878]]]},"properties":{"objectid":9547,"id":"10079","name":null,"code":"7","town":"Leh","district":"Leh Ladakh","state":"Ladakh","st_area(shape)":1182622.2148902558,"st_perimeter(shape)":6134.9796518260082}},{"type":"Feature","id":10079,"geometry":{"type":"Polygon","coordinates":[[[77.591862346372821,34.160841940182429],[77.591741334320901,34.160847141963856],[77.591443047832485,34.160885987323248],[77.591354177501444,34.160902854078394],[77.591123120030574,34.160942108239873],[77.590877082254053,34.160967589353703],[77.590475396083178,34.16097714253943],[77.590088554572361,34.160962592736823],[77.589713436076053,34.160955317834613],[77.589267983086216,34.160918943314002],[77.588769779226254,34.160821944020228],[77.588336048352588,34.160710394768955],[77.587928692913934,34.160540645884168],[77.587052440253188,34.159929547370361],[77.586428218928575,34.159519720647566],[77.586173256389685,34.159265092858327],[77.58607947676559,34.159075941393681],[77.585859680575155,34.158593358755155],[77.585713150080934,34.158409055371571],[77.585581272007346,34.158156850519973],[77.58544353332482,34.158021046737794],[77.585316315710912,34.157971742623083],[77.585053689644354,34.157927604760026],[77.5848543238384,34.157933104060838],[77.584628375984877,34.157894609690885],[77.584335972563267,34.157795625149433],[77.584050214878118,34.157460177004175],[77.583990405046492,34.15736119269684],[77.583897367430836,34.157262207530096],[77.583935810833424,34.157131260888647],[77.583956874530202,34.157046381404513],[77.584008147671668,34.156941041641595],[77.58404527594071,34.156885445850399],[77.584355235137906,34.156754319475013],[77.584335897104779,34.15669716845067],[77.583741948106919,34.155693596791842],[77.583667359192262,34.155448988520881],[77.583393866205668,34.15470372927647],[77.583244688376354,34.154289946931705],[77.582987771103376,34.153738997442964],[77.582857930408878,34.153617833523811],[77.582683889907372,34.15351495827754],[77.582054027162798,34.153364074802319],[77.581087133591552,34.153089739709451],[77.580675512951956,34.152973147471158],[77.580258367673352,34.152849696515588],[77.579937910763761,34.152778826468598],[77.579725194196058,34.152762823402639],[77.579451701209479,34.152735389886814],[77.579258322674903,34.152733103945963],[77.57905113074618,34.152737675827602],[77.57867542385334,34.15277196790592],[77.578371542657337,34.152778826468598],[77.578045561108723,34.152774253845713],[77.577733392954229,34.152781112408206],[77.577465425504954,34.152762823402639],[77.577269283752585,34.152707956362072],[77.577017891118629,34.152630227621962],[77.576432748305479,34.152390754052107],[77.576085456921717,34.152065900208491],[77.576544976630572,34.151415565054357],[77.576607018775661,34.151321590178313],[77.577399084022915,34.150275305558047],[77.580411098339667,34.146940617290653],[77.582296823817757,34.148028952611483],[77.583269420792732,34.148591752480996],[77.583740613210395,34.148920268435965],[77.583564023290151,34.149479446352451],[77.583464816045137,34.149892835206352],[77.583436447248459,34.150076662802412],[77.583403973150951,34.150570860152747],[77.583406880997515,34.150642345368851],[77.583630848065837,34.150669158814203],[77.584007747023065,34.150733564425238],[77.584381023074769,34.150825320126742],[77.584625892143109,34.150881371158327],[77.585379343307892,34.151062014064259],[77.585338774491348,34.151187276346974],[77.585716710104435,34.151311303643382],[77.585847853356128,34.152071001427984],[77.585351746164037,34.152521997225691],[77.585240237389485,34.152621660722303],[77.585619821411115,34.153183911847066],[77.585663288192777,34.153248296212396],[77.585847853356128,34.154210521762089],[77.586897000268038,34.155140730377681],[77.59118726243679,34.158179342730826],[77.593210617901292,34.157760764960678],[77.593828864530977,34.157807274199797],[77.594540785681815,34.158396382817394],[77.595177768473405,34.159063000593903],[77.596214665059748,34.159465193984893],[77.595624724344702,34.159999256279491],[77.59587617806406,34.160251541854315],[77.59617905404528,34.160559069977374],[77.596273753544196,34.160683015124405],[77.596494204606486,34.160967106193816],[77.594770370813933,34.16092240422747],[77.593367926382285,34.160867948343089],[77.592582682941284,34.160826933955519],[77.592318529738719,34.160822853849062],[77.591862346372821,34.160841940182429]]]},"properties":{"objectid":10079,"id":"10080","name":null,"code":"11","town":"Leh","district":"Leh Ladakh","state":"Ladakh","st_area(shape)":1215832.5449144703,"st_perimeter(shape)":6952.1289108016708}},{"type":"Feature","id":10094,"geometry":{"type":"Polygon","coordinates":[[[77.608156735496195,34.192507767280496],[77.608320582814102,34.193295283711549],[77.608380534579538,34.19424737702473],[77.608086023710285,34.194789122779511],[77.607730063584,34.195501941581519],[77.607486511445842,34.196447191373714],[77.607767533212836,34.197469909306825],[77.608929088112831,34.199840707308546],[77.610090643911207,34.200956353539127],[77.611608160734136,34.20179307852338],[77.617935532472728,34.206385856059654],[77.618614964254718,34.20724708347619],[77.618689902614022,34.208223189712257],[77.619008394009811,34.208889413872008],[77.619045863638647,34.209850007327098],[77.618764841871652,34.210562698046779],[77.618202799236073,34.21160073743696],[77.617640755702126,34.212437357503475],[77.616760221670745,34.212979605919791],[77.614586988589323,34.213769733928856],[77.613908486563659,34.213925111398645],[77.613369228796927,34.214048600781631],[77.612844654891816,34.213335939542482],[77.612488694765531,34.212979605919791],[77.612113999375666,34.212437357503475],[77.612844654891816,34.21192609087835],[77.61314441102401,34.211306369733443],[77.613313023904524,34.210779603399999],[77.613062728113562,34.210252833030943],[77.612229405041916,34.210193338764014],[77.612037560829847,34.209826456894866],[77.609303783502682,34.209786794597164],[77.609172775896624,34.2096077000242],[77.608198432596723,34.209509152790282],[77.60746777618229,34.208486580908513],[77.606849529552633,34.207789366031527],[77.606100138772916,34.207402022023594],[77.604675546377933,34.206623609606211],[77.602421379580974,34.205622075171981],[77.601438178892394,34.204918018678192],[77.600030073277779,34.203869360534135],[77.598943456737075,34.203203096694324],[77.598418882831965,34.202195943476767],[77.598100392334516,34.201204272836193],[77.59780063620228,34.200661947916117],[77.596301854642931,34.200506997722698],[77.594784337819988,34.199747735875306],[77.593547843662321,34.19886450400324],[77.592892126505518,34.197996758820707],[77.591842979593608,34.196369712439591],[77.591599427455478,34.195254005516468],[77.591468284203785,34.194417214893264],[77.591262201694448,34.193409956719336],[77.590924975933405,34.192743610221548],[77.590194319518986,34.192449175921602],[77.588489455450272,34.193177511331179],[77.587627656682429,34.194231260706538],[77.586747122651062,34.194696146518986],[77.585904057350191,34.194293245728716],[77.584555154306059,34.193564920698499],[77.583824498789951,34.193177511331179],[77.583131312004312,34.193254993198458],[77.582288247601738,34.193828357695025],[77.581220365426276,34.194649657607243],[77.579478031728755,34.19571888494751],[77.578447620080425,34.196509174766938],[77.57777316855838,34.198601082740431],[77.576780225640547,34.200708433512943],[77.576555407867659,34.201684614724627],[77.576424264615952,34.205325827026989],[77.57638679498713,34.208316151055321],[77.576274386999003,34.20971056706891],[77.575169035194733,34.210469739181683],[77.574213561905694,34.21014438011764],[77.573548970292222,34.209319969829913],[77.573539110383649,34.209307738030304],[77.573477452717512,34.207255359551667],[77.57346417112602,34.206813255514199],[77.57330424405599,34.205681670732424],[77.573295558245491,34.20562021561927],[77.572789719603975,34.204783528621782],[77.57245249384296,34.204086283113142],[77.573478487576693,34.202913749515091],[77.573482906389586,34.20290869966037],[77.574448121009553,34.201774485121312],[77.574746518889057,34.200626349086505],[77.575275448724966,34.198591165290004],[77.575587195569582,34.197103591723391],[77.57563475866894,34.196474147044754],[77.575647146436708,34.196310208373667],[77.575824752351537,34.195561711475278],[77.575898941515902,34.195249046594583],[77.57661835731119,34.194366388025912],[77.577913398269189,34.193079167801315],[77.578045197291033,34.192948163784436],[77.578341637741531,34.192799291621235],[77.57905237850612,34.192442357734379],[77.579313922102784,34.192338195292265],[77.580671061799734,34.191797698465521],[77.584004352289597,34.189109913156123],[77.58496357245167,34.188286700100953],[77.5853232803493,34.187552744086311],[77.585191387004372,34.186650167256573],[77.58432808894834,34.185807093030832],[77.583236976339634,34.184636692862505],[77.582109892491985,34.183724167117958],[77.580850916197704,34.183654734922555],[77.579687861111154,34.183416682521269],[77.57863271974135,34.183188548711279],[77.577913303946062,34.182781873576886],[77.577707647238185,34.182465917538629],[77.577577577473264,34.182266087931581],[77.577493645181306,34.181680865312963],[77.577505635893743,34.180480650646146],[77.577373742548772,34.179548240568188],[77.577371923460319,34.179539512161696],[77.577253839916224,34.178972918855727],[77.576894132916891,34.178238881804795],[77.576630344430328,34.177613954562347],[77.577548338209056,34.177150381437052],[77.577667779107571,34.177106175567303],[77.57798838244257,34.176978757863161],[77.578142398598033,34.176903347158074],[77.578425283470892,34.176739523541841],[77.578742744499053,34.176575699607532],[77.578896759756176,34.176547095879556],[77.579050775013343,34.176508089766926],[77.579302228732743,34.176422277741977],[77.579471960015752,34.17636506868601],[77.579679409760956,34.176383271571659],[77.580022015532236,34.17646518413693],[77.58026266431537,34.176530193604535],[77.580488911307867,34.176583769858325],[77.58062614693381,34.176604670459284],[77.580686120258846,34.176608880603546],[77.58077801162419,34.176608880603546],[77.580813215701852,34.176604304068974],[77.580897996003415,34.176579563428767],[77.580985885374204,34.176543816944026],[77.581093837718527,34.176492384013912],[77.581234651334242,34.176435799282309],[77.581390656359744,34.176389436309108],[77.581510731468839,34.17636879502728],[77.581604659314948,34.176361394367689],[77.581678534967295,34.176362623599587],[77.581795896265874,34.176385871983584],[77.582096509390894,34.176476885607002],[77.582410826315538,34.176570499538471],[77.582825725805932,34.176635508924939],[77.583167023630125,34.176630516208242],[77.583299630237434,34.176626255528468],[77.583423224945776,34.176596432250534],[77.583535232285314,34.176549566972135],[77.583570489363595,34.176526031020288],[77.583887277553586,34.1763145519975],[77.585335942103271,34.175459561394419],[77.585498011655233,34.175392519204401],[77.586092267876936,34.175144666720463],[77.586362384096361,34.175737886096151],[77.586563743263923,34.176034494591725],[77.586666878841669,34.17668459107513],[77.587037767171367,34.177316750386815],[77.587073662053484,34.177436138286822],[77.587070676053457,34.177636249849762],[77.587098281282138,34.177766894170112],[77.587133443138995,34.177838499793943],[77.587207111280492,34.178021336096847],[77.587280707556801,34.178276296732498],[77.58731648925118,34.178457650207932],[77.587332254684412,34.178497871243152],[77.587381013441401,34.178567379026731],[77.587392166025666,34.178581218299108],[77.587484891925925,34.178686083673156],[77.58752932619312,34.178739603563784],[77.587644818097658,34.178938882663601],[77.587685101249932,34.179025573521599],[77.587711108375743,34.179097803077596],[77.58772815300992,34.179173408016396],[77.587731858560446,34.179211964026955],[77.587728792610392,34.179297542834767],[77.587709224608545,34.179580838501771],[77.587703518509883,34.179878872982826],[77.587704771659702,34.179888054679601],[77.58771044452071,34.179906317000921],[77.587714863333588,34.1799153976255],[77.587718826700623,34.179921134790185],[77.587731905272861,34.179933517254931],[77.587742084981642,34.17994093766643],[77.587774163820455,34.179957388905848],[77.587815280609306,34.179974343258394],[77.587933633647992,34.180005262239568],[77.588078713363018,34.18010092039016],[77.588278614564899,34.180358065554515],[77.588371551569239,34.180582176915109],[77.588620990367446,34.180509935253134],[77.588648501273013,34.180500973596715],[77.588771470753926,34.180587068329615],[77.588866086709544,34.180699090710064],[77.58894026958572,34.180809936538154],[77.590021233028352,34.180991352937269],[77.590414130082465,34.180268157470167],[77.590748092264064,34.180170647569859],[77.590846315853852,34.180227528544506],[77.591209745471744,34.179788732522795],[77.591691043936365,34.179447445067844],[77.592226365285512,34.178984266975],[77.593355942856363,34.178655164951671],[77.595071357638091,34.178814208522432],[77.595203247389804,34.179548240568188],[77.595211954759847,34.179601868413144],[77.595311160208226,34.180212831943074],[77.595287738433839,34.181013703068217],[77.595275188969325,34.181442807341838],[77.595335140734747,34.182256168560123],[77.595491013707914,34.183129035345047],[77.59558388423693,34.183580957625331],[77.595694847734094,34.184120918557639],[77.595678383411553,34.184254851537077],[77.595622906154546,34.184706124249686],[77.595467033181393,34.185370674250692],[77.5957988789322,34.18583573449019],[77.595958840138223,34.186059909325252],[77.596690039135069,34.186650167256573],[77.597948063215156,34.187029008274614],[77.598787439135165,34.187658314645596],[77.599675611541414,34.18886195829797],[77.599961361141737,34.188883704451264],[77.602673174660154,34.189090076764572],[77.604591614984315,34.189447131098611],[77.605190155271572,34.189688740648236],[77.606090396543678,34.190052136009172],[77.607094400417608,34.1909238023349],[77.607541217050027,34.191311721388935],[77.608156735496195,34.192507767280496]]]},"properties":{"objectid":10094,"id":"10069","name":null,"code":"1","town":"Leh","district":"Leh Ladakh","state":"Ladakh","st_area(shape)":8834524.9889994003,"st_perimeter(shape)":23066.639945465282}},{"type":"Feature","id":10112,"geometry":{"type":"Polygon","coordinates":[[[77.580258367673352,34.152849696515588],[77.580675512951956,34.152973147471158],[77.581087133591552,34.153089739709451],[77.582054027162798,34.153364074802319],[77.582683889907372,34.15351495827754],[77.582857930408878,34.153617833523811],[77.582987771103376,34.153738997442964],[77.583244688376354,34.154289946931705],[77.583393866205668,34.15470372927647],[77.583667359192262,34.155448988520881],[77.583741948106919,34.155693596791842],[77.584335897104779,34.15669716845067],[77.584355235137906,34.156754319475013],[77.58404527594071,34.156885445850399],[77.584008147671668,34.156941041641595],[77.583956874530202,34.157046381404513],[77.583935810833424,34.157131260888647],[77.583910143270828,34.15721868925506],[77.5837824028374,34.157405985751033],[77.583691090885409,34.157610279331202],[77.583609923607909,34.157769796676746],[77.583538902801536,34.157862148334303],[77.583434063119697,34.158024463169141],[77.583308931393873,34.158186777691903],[77.583144136353312,34.158360833795001],[77.583131469209505,34.158428968850558],[77.58307928607465,34.158520090295454],[77.582592038966226,34.158898080858101],[77.582541977652085,34.15896558884404],[77.582351841137353,34.159197039501386],[77.582311257947751,34.159314575362245],[77.582294348959152,34.159434910464526],[77.58229096680212,34.1596419977908],[77.582311933480838,34.159762079693053],[77.582382127837135,34.15989043174131],[77.582416098527943,34.15995822511664],[77.582504029221198,34.160238071984217],[77.58253784809672,34.160411576026263],[77.582558140140648,34.160576684584179],[77.582551375826583,34.160713808118174],[77.582531084680951,34.160901303505561],[77.582520180031707,34.161396163736555],[77.582553346730307,34.161774637215672],[77.58260098888141,34.162301012444736],[77.58261929744522,34.162646791181785],[77.582637135291819,34.162998028821754],[77.58258055759859,34.163234700535085],[77.582508264777786,34.163492178803956],[77.58246426080359,34.163627419285021],[77.582467404008767,34.163848485189583],[77.58230395913607,34.163838081996239],[77.582127941442664,34.163773062752064],[77.581785335671398,34.163585807138247],[77.581581029131399,34.163432360915536],[77.581304429770597,34.163289317676167],[77.581030973614958,34.163193088194745],[77.580864385537083,34.1631254676334],[77.580587786176281,34.162951213970032],[77.5804337709191,34.162800368167723],[77.58021689245669,34.162644319682194],[77.579915147454429,34.162477867547231],[77.57942795604157,34.162329621000879],[77.57883703975611,34.16219437844093],[77.578478717958944,34.162121555377105],[77.578330988213835,34.162077341635417],[77.578217834624013,34.161960303924332],[77.577941235263211,34.161689817404543],[77.577579770260868,34.161367313285254],[77.576929133975312,34.160860146416027],[77.576721684230108,34.160724900758879],[77.576495376152153,34.160563647381984],[77.576159055892944,34.160412796570547],[77.575873027814893,34.160342572876267],[77.575505276402211,34.16023333548948],[77.575018084989338,34.1601709143807],[77.574298298189845,34.160012260118904],[77.573936833187503,34.159939435172944],[77.573628802673184,34.159874412926328],[77.573204474465598,34.159715758850744],[77.572912159078854,34.159611722510505],[77.572497260486799,34.159447865330662],[77.572192372279375,34.159304815340555],[77.572038357022237,34.159146159451346],[77.571912629713381,34.158958893575402],[77.571878055354716,34.158841852284986],[77.571887484970247,34.158501129805799],[77.571890628175424,34.15803556136656],[77.571796332918382,34.157356710268012],[77.571930648121352,34.157145085835459],[77.572280284108018,34.156737888986875],[77.572396828838038,34.156552149095411],[77.57256085581902,34.156184239955877],[77.572660134929279,34.155902055886258],[77.572737832014823,34.155494852300407],[77.57282416191029,34.155105507069571],[77.57290617540076,34.154851895546415],[77.572992504397888,34.154544703459997],[77.573152214973945,34.154191073389221],[77.573281709817081,34.153969608276988],[77.573406888255306,34.153701704704503],[77.573467318822779,34.15355525066979],[77.573471635227705,34.153455233678244],[77.573506167365565,34.153333783890176],[77.573562281528083,34.153248053866967],[77.573678827156414,34.15318018448226],[77.573924866729598,34.153108743787463],[77.574183856415885,34.153048018294434],[77.57453780880752,34.152955143970274],[77.576432748305479,34.152390754052107],[77.577017891118629,34.152630227621962],[77.577269283752585,34.152707956362072],[77.577465425504954,34.152762823402639],[77.577733392954229,34.152781112408206],[77.578045561108723,34.152774253845713],[77.578371542657337,34.152778826468598],[77.57867542385334,34.15277196790592],[77.57905113074618,34.152737675827602],[77.579258322674903,34.152733103945963],[77.579451701209479,34.152735389886814],[77.579725194196058,34.152762823402639],[77.579937910763761,34.152778826468598],[77.580258367673352,34.152849696515588]]]},"properties":{"objectid":10112,"id":"10072","name":null,"code":"5","town":"Leh","district":"Leh Ladakh","state":"Ladakh","st_area(shape)":1364372.5271224934,"st_perimeter(shape)":4780.1722575547819}},{"type":"Feature","id":10117,"geometry":{"type":"Polygon","coordinates":[[[77.580494384742892,34.146848406840327],[77.580411098339667,34.146940617290653],[77.577399084022915,34.150275305558047],[77.576607018775661,34.151321590178313],[77.576544976630572,34.151415565054357],[77.576085456921717,34.152065900208491],[77.575653890987851,34.151540143622711],[77.574965950363492,34.150608033840548],[77.574021717693626,34.149262876240364],[77.573751937444129,34.148955886854047],[77.573596813665944,34.148830300100464],[77.573010040410566,34.148487028142966],[77.572969058368983,34.148453099350625],[77.572345219726671,34.148106724988168],[77.572284570868561,34.148045198934703],[77.572375532477579,34.14746370083855],[77.572600250537505,34.147381920714878],[77.572936685781073,34.147097833753847],[77.573509551319219,34.14664923263777],[77.573760168707096,34.146275910404029],[77.573949671011221,34.14603532594073],[77.574921360687725,34.145175367901359],[77.575147029165208,34.145070798429039],[77.57514996665617,34.145066887070932],[77.575633296211649,34.14529554695023],[77.576250409167429,34.144433454317181],[77.576771235301194,34.143748844224312],[77.576416723259129,34.143517017409714],[77.577081038191523,34.143023148301829],[77.57946057386954,34.14152420693874],[77.578238901015752,34.139956077910703],[77.578316475930436,34.138457418952029],[77.581595060816127,34.137620068093021],[77.583131312004312,34.138457421182565],[77.583918172412822,34.138690018038346],[77.585342015612866,34.13841089980145],[77.5867929268491,34.137982008770813],[77.586989310248299,34.137923957275106],[77.586788471205267,34.138504162620194],[77.586557244851136,34.139031236062728],[77.585943365830389,34.140225248888854],[77.584887632470839,34.141699107044161],[77.580494384742892,34.146848406840327]]]},"properties":{"objectid":10117,"id":"10078","name":null,"code":"9","town":"Leh","district":"Leh Ladakh","state":"Ladakh","st_area(shape)":1222087.8249015356,"st_perimeter(shape)":5773.9441225700621}},{"type":"Feature","id":10108,"geometry":{"type":"Polygon","coordinates":[[[77.575633296211649,34.14529554695023],[77.57514996665617,34.145066887070932],[77.575147029165208,34.145070798429039],[77.575080870939459,34.145034198488396],[77.573513947674229,34.144018946586066],[77.572121922801529,34.143197676538662],[77.571692161583101,34.142894238285713],[77.571177420637071,34.142647065100981],[77.57112597232414,34.142673087043285],[77.569972090833247,34.143198003669568],[77.569266541432683,34.142610214299523],[77.56886901715653,34.142192951178011],[77.566654325926422,34.143118901892464],[77.565047371935478,34.140490779561688],[77.564268705958995,34.139231568032045],[77.564014356969452,34.138676120923556],[77.563639382203576,34.137484353229745],[77.56516468023348,34.136596754151029],[77.564980614533454,34.136324468079586],[77.564666441339241,34.135912323699934],[77.565164375704597,34.135828913699342],[77.565431126834952,34.135779848692188],[77.56559117787252,34.13572587700277],[77.566029834208877,34.135519803976337],[77.565970879573428,34.135407279232503],[77.566949669533969,34.135051859623161],[77.566212913558729,34.134040317854065],[77.56635318279541,34.13399016026198],[77.566410663295486,34.133978265526203],[77.566458564161408,34.134017914391023],[77.566651458504055,34.133914479168567],[77.567998560425991,34.13297383281467],[77.569497596208592,34.134509055977105],[77.569882903396888,34.135088029654291],[77.570920268005523,34.134744570995345],[77.571151452138835,34.134651346410095],[77.573108210999735,34.136751693079518],[77.574213561905694,34.13670517298997],[77.574338234592389,34.137427513346204],[77.577090829828123,34.138140119262864],[77.578316475930436,34.138457418952029],[77.578238901015752,34.139956077910703],[77.57946057386954,34.14152420693874],[77.577081038191523,34.143023148301829],[77.576416723259129,34.143517017409714],[77.576771235301194,34.143748844224312],[77.576250409167429,34.144433454317181],[77.575633296211649,34.14529554695023]]]},"properties":{"objectid":10108,"id":"10068","name":null,"code":"8","town":"Leh","district":"Leh Ladakh","state":"Ladakh","st_area(shape)":1513915.3587461789,"st_perimeter(shape)":5809.75734924484}},{"type":"Feature","id":10109,"geometry":{"type":"Polygon","coordinates":[[[77.572396828838038,34.156552149095411],[77.572280284108018,34.156737888986875],[77.571930648121352,34.157145085835459],[77.571796332918382,34.157356710268012],[77.571409722274609,34.157429537441487],[77.570935103682459,34.157559586393361],[77.570655361116465,34.15779627335138],[77.570589354706016,34.157923720757793],[77.570576781885293,34.158077176248831],[77.570598784321533,34.158430904521623],[77.570589354706016,34.158618172311883],[77.570520205090375,34.158792434174799],[77.570444768166084,34.158873062964716],[77.570344187396969,34.158886067720935],[77.56894861867049,34.158969297370007],[77.56876631456673,34.158997907798422],[77.567546420377212,34.159199072532175],[77.567505566794708,34.159127198358981],[77.567422243560529,34.158980608038604],[77.56736550057731,34.158880779591129],[77.567342728284856,34.15884071645894],[77.567340248934656,34.158836353786647],[77.567336652978582,34.15883002794866],[77.567302089399689,34.15876260459536],[77.567267054205288,34.15869426092965],[77.567217899291279,34.158628631899198],[77.567054632285021,34.158410645387477],[77.566744384728594,34.158226471690874],[77.566454369927328,34.15809810819308],[77.566312735251429,34.15799206876391],[77.566157611473216,34.157869285983296],[77.56602272134846,34.157774407683384],[77.565955275836941,34.157640462410079],[77.565982254041543,34.157411638960156],[77.566063188655406,34.157244206430242],[77.566069933206549,34.157099098068187],[77.566049699553091,34.156937246053644],[77.565928297632311,34.156680514943261],[77.565827130263344,34.156529824450921],[77.565685495587431,34.156451688148721],[77.565429203541939,34.156407039544142],[77.565186401497058,34.156418201139957],[77.564930109451566,34.156373552517671],[77.564748007468722,34.156312159601299],[77.564147746009368,34.155826598845564],[77.563952154924237,34.155575444840338],[77.563837497554644,34.155329872072961],[77.563594695509749,34.155089879848674],[77.561510639983211,34.153348518624639],[77.560364071677057,34.152304800795243],[77.560101035978732,34.152053636316545],[77.559831254830911,34.151835960673324],[77.559574963683716,34.151668517088865],[77.559143314206551,34.151411769961477],[77.558610497360363,34.151076880778589],[77.555871002256453,34.149414680711011],[77.55331921013115,34.14781617254831],[77.552298457168746,34.147124221587028],[77.550383558901771,34.145966124436768],[77.550783827531134,34.145440416868446],[77.55307001118311,34.146325203503949],[77.553552110046667,34.14651109599064],[77.553848868500765,34.146572495288062],[77.554091671443956,34.146522258894343],[77.554334473488822,34.146382713942813],[77.554767175791525,34.145951702895957],[77.556614120100491,34.146940893109281],[77.557699987446284,34.147638610951603],[77.55783487757104,34.147722336408044],[77.557976513145235,34.147677683188526],[77.558145126025764,34.147538139402165],[77.558347461662024,34.147376269808149],[77.558468862684478,34.147286961492789],[77.558590263706904,34.147270216173119],[77.558738642933989,34.147286961492789],[77.559001679530624,34.147381851574714],[77.559306936047349,34.147541863298748],[77.560457415618231,34.148325606427719],[77.5610228763435,34.148611387257688],[77.561429705369363,34.148118637064471],[77.561638785556795,34.147900951280342],[77.564106311216875,34.14722693511203],[77.565118803271915,34.147166936196093],[77.566083422308864,34.147259052624861],[77.566497533078433,34.147408710661587],[77.566798727413413,34.147586944811906],[77.568216393797556,34.148268164220646],[77.568583813731919,34.148403052907312],[77.569045160614095,34.148505934380054],[77.569484406245266,34.148567663054834],[77.570036594362236,34.148665107614725],[77.570405345599823,34.148771335691492],[77.57174503911564,34.149332981279159],[77.572297526371599,34.149296555659838],[77.572956489141532,34.149087066226166],[77.573460053248752,34.148950928928151],[77.573596813665944,34.148830300100464],[77.573751937444129,34.148955886854047],[77.574021717693626,34.149262876240364],[77.574965950363492,34.150608033840548],[77.575653890987851,34.151540143622711],[77.576085456921717,34.152065900208491],[77.576432748305479,34.152390754052107],[77.57453780880752,34.152955143970274],[77.574183856415885,34.153048018294434],[77.573924866729598,34.153108743787463],[77.573678827156414,34.15318018448226],[77.573562281528083,34.153248053866967],[77.573506167365565,34.153333783890176],[77.573471635227705,34.153455233678244],[77.573467318822779,34.15355525066979],[77.573406888255306,34.153701704704503],[77.573281709817081,34.153969608276988],[77.573152214973945,34.154191073389221],[77.572992504397888,34.154544703459997],[77.57290617540076,34.154851895546415],[77.57282416191029,34.155105507069571],[77.572737832014823,34.155494852300407],[77.572660134929279,34.155902055886258],[77.57256085581902,34.156184239955877],[77.572396828838038,34.156552149095411]]]},"properties":{"objectid":10109,"id":"10077","name":null,"code":"6","town":"Leh","district":"Leh Ladakh","state":"Ladakh","st_area(shape)":2102687.1018584478,"st_perimeter(shape)":7818.6521790544248}},{"type":"Feature","id":10110,"geometry":{"type":"Polygon","coordinates":[[[77.590021233028352,34.180991352937269],[77.58894026958572,34.180809936538154],[77.588866086709544,34.180699090710064],[77.588771470753926,34.180587068329615],[77.588648501273013,34.180500973596715],[77.588620990367446,34.180509935253134],[77.588371551569239,34.180582176915109],[77.588278614564899,34.180358065554515],[77.588078713363018,34.18010092039016],[77.587933633647992,34.180005262239568],[77.587815280609306,34.179974343258394],[77.587774163820455,34.179957388905848],[77.587742084981642,34.17994093766643],[77.587731905272861,34.179933517254931],[77.587718826700623,34.179921134790185],[77.587714863333588,34.1799153976255],[77.58771044452071,34.179906317000921],[77.587704771659702,34.179888054679601],[77.587703518509883,34.179878872982826],[77.587709224608545,34.179580838501771],[77.587728792610392,34.179297542834767],[77.587731858560446,34.179211964026955],[77.58772815300992,34.179173408016396],[77.587711108375743,34.179097803077596],[77.587685101249932,34.179025573521599],[77.587644818097658,34.178938882663601],[77.58752932619312,34.178739603563784],[77.587484891925925,34.178686083673156],[77.587392166025666,34.178581218299108],[77.587381013441401,34.178567379026731],[77.587332254684412,34.178497871243152],[77.58731648925118,34.178457650207932],[77.587280707556801,34.178276296732498],[77.587207111280492,34.178021336096847],[77.587133443138995,34.177838499793943],[77.587098281282138,34.177766894170112],[77.587070676053457,34.177636249849762],[77.587073662053484,34.177436138286822],[77.587037767171367,34.177316750386815],[77.586666878841669,34.17668459107513],[77.586563743263923,34.176034494591725],[77.586362384096361,34.175737886096151],[77.586092267876936,34.175144666720463],[77.585498011655233,34.175392519204401],[77.585335942103271,34.175459561394419],[77.583887277553586,34.1763145519975],[77.583570489363595,34.176526031020288],[77.58344868769251,34.17615204119668],[77.583519640226925,34.176046002892058],[77.583563126771509,34.175926708896888],[77.583602036399725,34.175818776655532],[77.583622635667496,34.175735459571406],[77.583606614214403,34.175616165880427],[77.583659256388373,34.175521487378511],[77.583714187469695,34.175441958068284],[77.583759962921619,34.175388938486456],[77.583844648001744,34.175326450548575],[77.583918121208853,34.17527274492339],[77.584000285616298,34.175231772464805],[77.58406437142871,34.175174965414897],[77.584114724695297,34.175129519598805],[77.584142190685128,34.175068925139264],[77.58415821213822,34.174993182003675],[77.584162789952899,34.17493448111972],[77.584181100313344,34.174682635551797],[77.584256629764099,34.174606892069484],[77.584284095753915,34.174517894226994],[77.584236030496328,34.174466767005406],[77.584206276497497,34.174385343015366],[77.58419025504439,34.174336109400357],[77.584153634323513,34.174267940360991],[77.584094126325837,34.174216813731164],[77.583997996708973,34.174180835108267],[77.583922467258205,34.174158112307168],[77.583789716920478,34.17404449672366],[77.58371647637702,34.173957391240258],[77.583505907681158,34.173478309474511],[77.58344868769251,34.173330608442207],[77.583359424797692,34.173247288901436],[77.583256429357121,34.173205629471859],[77.583160300638539,34.173163970021676],[77.583103080649892,34.173114736437348],[77.583073326651046,34.173048459383949],[77.583045860661258,34.172968927743099],[77.583020684477106,34.172883714869023],[77.58295202085003,34.17273033088432],[77.582929132674906,34.172669735445332],[77.582853602325812,34.17250120273507],[77.581786732551691,34.171836809265102],[77.581702914345783,34.171514852279579],[77.581280919062962,34.171366910720209],[77.581034016208818,34.171266546927107],[77.580956196952357,34.171010902890231],[77.580779960070032,34.17085940926674],[77.58103172730145,34.170728746076826],[77.58114387747311,34.170639744144587],[77.58136360179833,34.170334862259899],[77.58147575196999,34.170289413837374],[77.581654277759654,34.170211773375961],[77.581791605013777,34.169931507676722],[77.581988440265576,34.169584962016934],[77.582153233509487,34.169240308735482],[77.582196720054071,34.169037682909895],[77.582299715494685,34.168871036013201],[77.582480530191688,34.168672196185881],[77.582640745620921,34.168560467033565],[77.582810115781228,34.168465781359309],[77.583091637011464,34.168378670118123],[77.583256429357121,34.168257471461445],[77.58336629151971,34.168100292158947],[77.58344868769251,34.167990456078961],[77.583519640226925,34.167993770280113],[77.583773552635236,34.168008564890279],[77.583880839327961,34.167978974924026],[77.584109718384227,34.167730422811566],[77.584504079692266,34.167313633123683],[77.584542728809041,34.167376885126259],[77.584634279712944,34.167456422036665],[77.584751008597578,34.167537852711511],[77.584821961131979,34.167571940327711],[77.584936400210964,34.167568152650318],[77.585046262373581,34.167532171936358],[77.585101192556564,34.167469678181121],[77.585174433998304,34.167388247440456],[77.585256830171119,34.167310603567117],[77.58530718433606,34.167274622743378],[77.585348381973304,34.167244322699212],[77.585501730680519,34.167164785588959],[77.585744342282553,34.167064416799171],[77.585897690989768,34.167011391211041],[77.586016707883445,34.16696972870345],[77.58647153119999,34.166649365311287],[77.590600629318601,34.168291439865712],[77.591303183736002,34.168291437635951],[77.591859372050905,34.168242996496197],[77.594663688687447,34.169826759261582],[77.59510484323863,34.170013232517896],[77.595091768259678,34.170041527041704],[77.595075626432333,34.170106852133095],[77.59507141962186,34.170157678753291],[77.595079144234958,34.170212321144938],[77.59508190924943,34.170225897193632],[77.595112474426969,34.170305510202908],[77.595144546977536,34.170362482557003],[77.595200218270662,34.170439014709657],[77.595223088479472,34.170464944846472],[77.595247722081211,34.170486543377926],[77.595285039894733,34.170510098108622],[77.595323566840648,34.170530869403841],[77.59533970148145,34.170537507268619],[77.595401386995405,34.170562524678381],[77.595434406370273,34.170579220041901],[77.595453807285452,34.170596053644495],[77.595485726224155,34.170635777484506],[77.595498244247651,34.170658666232747],[77.595511192564146,34.17069395737623],[77.595539972789211,34.170828425245752],[77.595569025203815,34.170894067832933],[77.595592660777243,34.170934398755861],[77.595624400052884,34.170977082740919],[77.595661329794197,34.171011141468497],[77.595715092167325,34.171042207178211],[77.595753071140905,34.171058717381591],[77.595792570063949,34.171081342167071],[77.59583302569277,34.171115047816627],[77.595851120457525,34.171135945312614],[77.595862866828213,34.171159900464787],[77.595880944524978,34.17121828066805],[77.595897981972655,34.171310913421138],[77.595899443531636,34.171418485758359],[77.595888750884782,34.171572422117073],[77.595882464474428,34.171819472745113],[77.595887367479236,34.172072035151068],[77.595941681417955,34.172296719991031],[77.596006053792891,34.172544704214054],[77.596048297967471,34.172945804764744],[77.596094565696177,34.173193787080514],[77.596189112481511,34.173465069137968],[77.596215264236051,34.173549948466025],[77.596254402934676,34.173770937103129],[77.596307798795166,34.174330502660034],[77.596362289701986,34.174628044362507],[77.596384382868067,34.17470545334146],[77.596402120103363,34.174767596893766],[77.596417850502306,34.174890123962655],[77.596418725461376,34.174911603192754],[77.596419444113621,34.174980404918159],[77.596415551713491,34.175209587278509],[77.596431081788126,34.175355495405682],[77.596433413814594,34.175404521074299],[77.596431511182828,34.175428132401706],[77.596417520820594,34.175506832319478],[77.596406544306134,34.175548124961416],[77.596353576043725,34.175652826886314],[77.596315845005165,34.175700199520584],[77.596250282362476,34.175798069833192],[77.596179059435158,34.175880594613226],[77.596134807525942,34.175922855450452],[77.596080501672077,34.175965771017623],[77.596041190496933,34.176003848392781],[77.596014100901229,34.176039708071251],[77.595996347496268,34.176070523704475],[77.595975554192378,34.176120210396356],[77.595972515191761,34.17613908220526],[77.595978785432465,34.176211699947096],[77.595984048661691,34.17622437279978],[77.596003335490835,34.176255521313912],[77.596053076106458,34.176321058606348],[77.596092150126381,34.176364892550616],[77.596225070245694,34.176502888950552],[77.596419947170162,34.176788931145936],[77.596445092811607,34.176840938375854],[77.596484222527081,34.176948125384449],[77.596498207499423,34.177003304415884],[77.596511099222042,34.177136443830172],[77.596511099222042,34.177280400009579],[77.596484459682316,34.177442540764247],[77.596478883839325,34.177476482433249],[77.596451575054701,34.177550666384249],[77.596429842113025,34.177590908660726],[77.59639258987653,34.177633581104168],[77.596328117788573,34.177691898861397],[77.596298124837858,34.177710720526015],[77.59609305742481,34.177808270427938],[77.595772453191472,34.177966891243088],[77.595305229530723,34.178184315954518],[77.595246625238246,34.178219021304919],[77.595223704723779,34.178237121233089],[77.595184680111203,34.17828933194226],[77.595170536137033,34.17835304020042],[77.595172107290466,34.178382943862957],[77.595178393700849,34.178492157763088],[77.595164081741729,34.178579858301987],[77.595133871398744,34.178691827609939],[77.595071357638091,34.178814208522432],[77.593355942856363,34.178655164951671],[77.592226365285512,34.178984266975],[77.591691043936365,34.179447445067844],[77.591209745471744,34.179788732522795],[77.590846315853852,34.180227528544506],[77.590748092264064,34.180170647569859],[77.590414130082465,34.180268157470167],[77.590021233028352,34.180991352937269]]]},"properties":{"objectid":10110,"id":"10070","name":null,"code":"2","town":"Leh","district":"Leh Ladakh","state":"Ladakh","st_area(shape)":2029046.8181990252,"st_perimeter(shape)":6396.0999464683273}},{"type":"Feature","id":10111,"geometry":{"type":"Polygon","coordinates":[[[77.579302228732743,34.176422277741977],[77.579050775013343,34.176508089766926],[77.578896759756176,34.176547095879556],[77.578742744499053,34.176575699607532],[77.578425283470892,34.176739523541841],[77.578142398598033,34.176903347158074],[77.57798838244257,34.176978757863161],[77.577667779107571,34.177106175567303],[77.577548338209056,34.177150381437052],[77.576630344430328,34.177613954562347],[77.575659137149131,34.177356045222133],[77.574663945748128,34.176572395404783],[77.573428949980368,34.175620102578655],[77.572931192583127,34.17515609636316],[77.57269466706714,34.174763426790484],[77.572686034257231,34.174499161034682],[77.572729199204957,34.174106332331618],[77.572768047747729,34.173692074289747],[77.572772364152684,34.173520656240946],[77.572780996962564,34.17329924108661],[77.572780996962564,34.17313496528719],[77.572819845505336,34.172952832628695],[77.572871643262928,34.172742129490807],[77.572945023045236,34.172542140101612],[77.572975238778113,34.172345721423852],[77.572951399287106,34.172309754638022],[77.572901858097509,34.172235012377982],[77.572826373562506,34.172206624943342],[77.572395544247186,34.172073951928716],[77.572524504592749,34.171800811046808],[77.572539272896023,34.171738605108402],[77.572811211797131,34.170624358378191],[77.57282416191029,34.170477933695594],[77.57277668055761,34.170327937488352],[77.57277668055761,34.170306509118433],[77.572733515609912,34.170202939949853],[77.57244431019069,34.169902946291387],[77.572133522746782,34.169574381151193],[77.571822711048384,34.169311516523436],[77.570903474899609,34.168823126632532],[77.570984589176504,34.168782211989523],[77.571253611247897,34.168591291343908],[77.57149947744621,34.168461838381297],[77.571597264454795,34.168408670222384],[77.57174419919086,34.168302389548401],[77.571867881035828,34.168168730037188],[77.571919740777162,34.168119693475795],[77.571957540087695,34.168095704014085],[77.572038266292395,34.168054302926045],[77.572117005423678,34.168034166509301],[77.572265014544811,34.168008749962283],[77.57273966727297,34.167960165210864],[77.572860152013803,34.167922435769214],[77.572899706632384,34.167904908913435],[77.572918685339403,34.167893824648758],[77.572929462427879,34.167883198975325],[77.572944935010327,34.167863136844019],[77.572958664861133,34.167829809702944],[77.572968704432753,34.167786617964246],[77.572981308694494,34.16774825146846],[77.572990738310025,34.167723545395177],[77.573003311130734,34.167692337243921],[77.573033171130788,34.167640324376066],[77.573065670381155,34.167609263360347],[77.573092891130898,34.167590912159078],[77.573135323951661,34.167562304642587],[77.573195913520919,34.167530130187011],[77.57323171767321,34.167522428473177],[77.573301426040928,34.167511148679523],[77.573362787263065,34.167509141119893],[77.573418560964086,34.167514982441922],[77.573464642741527,34.167521578177784],[77.573488880186218,34.167527181654101],[77.573545901647208,34.167542908400463],[77.573616229852476,34.167570106693503],[77.573690093826713,34.167585710793169],[77.573735669852638,34.167585710793169],[77.573778102673401,34.167574008090298],[77.573835514901546,34.167542921035952],[77.573853170390123,34.167530507765669],[77.573882305449743,34.167502608560646],[77.574159998958564,34.167127993796925],[77.57422286216385,34.167026568034004],[77.574235434984558,34.166914738591785],[77.574248007805267,34.166810711865736],[77.574210289343142,34.166667674350698],[77.574150569343033,34.166571448720177],[77.574131710111971,34.166498629431985],[77.574137996522325,34.166451817264701],[77.574159998958564,34.166384199313633],[77.574207146137965,34.166337386339599],[77.574248007805267,34.166303577696596],[77.574486888703944,34.166186545844432],[77.574653476781819,34.166134532048758],[77.57473218447204,34.166112823885193],[77.574807492038943,34.166099278392593],[77.574986303492892,34.166168629894244],[77.575265696614252,34.166237982082187],[77.575567441616499,34.166205617586257],[77.575846834737831,34.166237982082187],[77.576126227859177,34.166113148697534],[77.576349742176617,34.166048419597473],[77.576550905511439,34.166103901580065],[77.576729716965374,34.166076160964998],[77.576914115940369,34.165946703401865],[77.57726615132718,34.165858857430365],[77.577457821266108,34.165795887480172],[77.577973243135091,34.165715356724903],[77.578456366078029,34.165687788423362],[77.579115733988147,34.165595318224113],[77.579940729677105,34.165432988212245],[77.580097726442673,34.165411566775752],[77.580473584252502,34.165391884618423],[77.580792092716266,34.165405755039536],[77.580926222866282,34.165485162246007],[77.581127364641574,34.165521342289054],[77.581250297291561,34.16542424868306],[77.581576002159082,34.165301724224108],[77.581992531193364,34.165273934288606],[77.582289639990435,34.16529479086347],[77.582630499436789,34.165387260648671],[77.582770196446646,34.16487404972063],[77.583099879952542,34.164786202632911],[77.583440739398881,34.164601260901193],[77.583563672048882,34.164758460841519],[77.584150397693548,34.164592013618119],[77.584230047716559,34.164797409205072],[77.58426529850658,34.165044831237964],[77.584180432865068,34.165076040368078],[77.584038990428638,34.165169666945786],[77.583969839914715,34.165297102479286],[77.583702670169444,34.165793839742605],[77.583661809400425,34.165908270661227],[77.583633520553803,34.166033104348919],[77.583624090938272,34.166183945118263],[77.583624090938272,34.166282771913721],[77.583749818247128,34.166392000730148],[77.584054705556241,34.166662472927896],[77.584290444148039,34.166961551245578],[77.584504079692266,34.167313633123683],[77.584109718384227,34.167730422811566],[77.583880839327961,34.167978974924026],[77.583773552635236,34.168008564890279],[77.583519640226925,34.167993770280113],[77.58344868769251,34.167990456078961],[77.58336629151971,34.168100292158947],[77.583256429357121,34.168257471461445],[77.583091637011464,34.168378670118123],[77.582810115781228,34.168465781359309],[77.582640745620921,34.168560467033565],[77.582480530191688,34.168672196185881],[77.582299715494685,34.168871036013201],[77.582196720054071,34.169037682909895],[77.582153233509487,34.169240308735482],[77.581988440265576,34.169584962016934],[77.581791605013777,34.169931507676722],[77.581654277759654,34.170211773375961],[77.58147575196999,34.170289413837374],[77.58136360179833,34.170334862259899],[77.58114387747311,34.170639744144587],[77.58103172730145,34.170728746076826],[77.580779960070032,34.17085940926674],[77.580956196952357,34.171010902890231],[77.581034016208818,34.171266546927107],[77.581280919062962,34.171366910720209],[77.581702914345783,34.171514852279579],[77.581786732551691,34.171836809265102],[77.582853602325812,34.17250120273507],[77.582929132674906,34.172669735445332],[77.58295202085003,34.17273033088432],[77.583020684477106,34.172883714869023],[77.583045860661258,34.172968927743099],[77.583073326651046,34.173048459383949],[77.583103080649892,34.173114736437348],[77.583160300638539,34.173163970021676],[77.583256429357121,34.173205629471859],[77.583359424797692,34.173247288901436],[77.58344868769251,34.173330608442207],[77.583505907681158,34.173478309474511],[77.58371647637702,34.173957391240258],[77.583789716920478,34.17404449672366],[77.583922467258205,34.174158112307168],[77.583997996708973,34.174180835108267],[77.584094126325837,34.174216813731164],[77.584153634323513,34.174267940360991],[77.58419025504439,34.174336109400357],[77.584206276497497,34.174385343015366],[77.584236030496328,34.174466767005406],[77.584284095753915,34.174517894226994],[77.584256629764099,34.174606892069484],[77.584181100313344,34.174682635551797],[77.584162789952899,34.17493448111972],[77.58415821213822,34.174993182003675],[77.584142190685128,34.175068925139264],[77.584114724695297,34.175129519598805],[77.58406437142871,34.175174965414897],[77.584000285616298,34.175231772464805],[77.583918121208853,34.17527274492339],[77.583844648001744,34.175326450548575],[77.583759962921619,34.175388938486456],[77.583714187469695,34.175441958068284],[77.583659256388373,34.175521487378511],[77.583606614214403,34.175616165880427],[77.583622635667496,34.175735459571406],[77.583602036399725,34.175818776655532],[77.583563126771509,34.175926708896888],[77.583519640226925,34.176046002892058],[77.58344868769251,34.17615204119668],[77.583570489363595,34.176526031020288],[77.583535232285314,34.176549566972135],[77.583423224945776,34.176596432250534],[77.583299630237434,34.176626255528468],[77.583167023630125,34.176630516208242],[77.582825725805932,34.176635508924939],[77.582410826315538,34.176570499538471],[77.582096509390894,34.176476885607002],[77.581795896265874,34.176385871983584],[77.581678534967295,34.176362623599587],[77.581604659314948,34.176361394367689],[77.581510731468839,34.17636879502728],[77.581390656359744,34.176389436309108],[77.581234651334242,34.176435799282309],[77.581093837718527,34.176492384013912],[77.580985885374204,34.176543816944026],[77.580897996003415,34.176579563428767],[77.580813215701852,34.176604304068974],[77.58077801162419,34.176608880603546],[77.580686120258846,34.176608880603546],[77.58062614693381,34.176604670459284],[77.580488911307867,34.176583769858325],[77.58026266431537,34.176530193604535],[77.580022015532236,34.17646518413693],[77.579679409760956,34.176383271571659],[77.579471960015752,34.17636506868601],[77.579302228732743,34.176422277741977]]]},"properties":{"objectid":10111,"id":"10071","name":null,"code":"3","town":"Leh","district":"Leh Ladakh","state":"Ladakh","st_area(shape)":1690292.8120236483,"st_perimeter(shape)":6255.7844645463028}},{"type":"Feature","id":10113,"geometry":{"type":"Polygon","coordinates":[[[77.573301426040928,34.167511148679523],[77.57323171767321,34.167522428473177],[77.573195913520919,34.167530130187011],[77.573135323951661,34.167562304642587],[77.573092891130898,34.167590912159078],[77.573065670381155,34.167609263360347],[77.573033171130788,34.167640324376066],[77.573003311130734,34.167692337243921],[77.572990738310025,34.167723545395177],[77.572981308694494,34.16774825146846],[77.572968704432753,34.167786617964246],[77.572958664861133,34.167829809702944],[77.572944935010327,34.167863136844019],[77.572929462427879,34.167883198975325],[77.572918685339403,34.167893824648758],[77.572899706632384,34.167904908913435],[77.572860152013803,34.167922435769214],[77.57273966727297,34.167960165210864],[77.572265014544811,34.168008749962283],[77.572117005423678,34.168034166509301],[77.572038266292395,34.168054302926045],[77.571957540087695,34.168095704014085],[77.571919740777162,34.168119693475795],[77.571867881035828,34.168168730037188],[77.57174419919086,34.168302389548401],[77.571597264454795,34.168408670222384],[77.57149947744621,34.168461838381297],[77.571253611247897,34.168591291343908],[77.570984589176504,34.168782211989523],[77.570903474899609,34.168823126632532],[77.570518091354501,34.168590727955994],[77.569862234060537,34.168216801076525],[77.569459907390865,34.167990256141714],[77.569040818157987,34.167749840565214],[77.568784099412738,34.167577763063782],[77.568636818825254,34.167469938324075],[77.568595923920284,34.167432821857794],[77.568517004227616,34.167345769011924],[77.568478979439945,34.167295833362409],[77.568247341657425,34.166903758254968],[77.568018238920601,34.166395179717973],[77.56774488068136,34.165741975847681],[77.567673356818418,34.16544015346593],[77.567644601746167,34.165228188056759],[77.567647213148689,34.16507274760766],[77.567654358348477,34.165030825479334],[77.567699758304627,34.164846455129286],[77.567943393087774,34.164173675760992],[77.568003944029499,34.163973653433374],[77.56810384567224,34.163492837368402],[77.568198905395619,34.162673438774554],[77.568216648919091,34.162435023912543],[77.568218876740985,34.162257084228685],[77.568133383177098,34.161209829028529],[77.568070227121069,34.160756234134467],[77.567960670385617,34.16022949916637],[77.567864516514263,34.159859494984048],[77.567823220960634,34.159753245173441],[77.567650980683027,34.159383024823072],[77.567546420377212,34.159199072532175],[77.56876631456673,34.158997907798422],[77.56894861867049,34.158969297370007],[77.570344187396969,34.158886067720935],[77.570444768166084,34.158873062964716],[77.570520205090375,34.158792434174799],[77.570589354706016,34.158618172311883],[77.570598784321533,34.158430904521623],[77.570576781885293,34.158077176248831],[77.570589354706016,34.157923720757793],[77.570655361116465,34.15779627335138],[77.570935103682459,34.157559586393361],[77.571409722274609,34.157429537441487],[77.571796332918382,34.157356710268012],[77.571890628175424,34.15803556136656],[77.571887484970247,34.158501129805799],[77.571878055354716,34.158841852284986],[77.571912629713381,34.158958893575402],[77.572038357022237,34.159146159451346],[77.572192372279375,34.159304815340555],[77.572497260486799,34.159447865330662],[77.572912159078854,34.159611722510505],[77.573204474465598,34.159715758850744],[77.573628802673184,34.159874412926328],[77.573936833187503,34.159939435172944],[77.574298298189845,34.160012260118904],[77.575018084989338,34.1601709143807],[77.575505276402211,34.16023333548948],[77.575873027814893,34.160342572876267],[77.576159055892944,34.160412796570547],[77.576495376152153,34.160563647381984],[77.576721684230108,34.160724900758879],[77.576929133975312,34.160860146416027],[77.577579770260868,34.161367313285254],[77.577941235263211,34.161689817404543],[77.578217834624013,34.161960303924332],[77.578330988213835,34.162077341635417],[77.578478717958944,34.162121555377105],[77.57883703975611,34.16219437844093],[77.57942795604157,34.162329621000879],[77.579915147454429,34.162477867547231],[77.58021689245669,34.162644319682194],[77.5804337709191,34.162800368167723],[77.580587786176281,34.162951213970032],[77.580864385537083,34.1631254676334],[77.581030973614958,34.163193088194745],[77.581304429770597,34.163289317676167],[77.581581029131399,34.163432360915536],[77.581785335671398,34.163585807138247],[77.582127941442664,34.163773062752064],[77.58230395913607,34.163838081996239],[77.582467404008767,34.163848485189583],[77.58246426080359,34.163627419285021],[77.582508264777786,34.163492178803956],[77.58258055759859,34.163234700535085],[77.582637135291819,34.162998028821754],[77.58261929744522,34.162646791181785],[77.58260098888141,34.162301012444736],[77.582553346730307,34.161774637215672],[77.582520180031707,34.161396163736555],[77.5827914937054,34.161410616832946],[77.582963972934877,34.161458189980628],[77.583126306591552,34.161525351763508],[77.583200708656662,34.161575723437217],[77.583258201733159,34.16164568371498],[77.5832683482043,34.161710047505856],[77.583264966047224,34.161771611920237],[77.583258201733159,34.161838774197072],[77.583251438317376,34.161908734256855],[77.583251438317376,34.161984290669821],[77.58327511162004,34.162059847758428],[77.583312312652623,34.162087831270057],[77.58335966015629,34.162124210490241],[77.583423917546881,34.162152194723816],[77.58361330576497,34.162196968883642],[77.583738437490794,34.162244541588244],[77.583843278070944,34.162261331510926],[77.584025902873265,34.162255735118144],[77.584215291989665,34.162247340156661],[77.58438100690509,34.162224953093094],[77.584570395123194,34.162182976775441],[77.584780076283522,34.162157791123462],[77.584965828121341,34.162129352727653],[77.585306474666979,34.162157804503096],[77.585561856719124,34.162210633932261],[77.585556945629449,34.162531671997819],[77.585517656013863,34.164774842198383],[77.584230047716559,34.164797409205072],[77.584150397693548,34.164592013618119],[77.583563672048882,34.164758460841519],[77.583440739398881,34.164601260901193],[77.583099879952542,34.164786202632911],[77.582770196446646,34.16487404972063],[77.582630499436789,34.165387260648671],[77.582289639990435,34.16529479086347],[77.581992531193364,34.165273934288606],[77.581576002159082,34.165301724224108],[77.581250297291561,34.16542424868306],[77.581127364641574,34.165521342289054],[77.580926222866282,34.165485162246007],[77.580792092716266,34.165405755039536],[77.580473584252502,34.165391884618423],[77.580097726442673,34.165411566775752],[77.579940729677105,34.165432988212245],[77.579115733988147,34.165595318224113],[77.578456366078029,34.165687788423362],[77.577973243135091,34.165715356724903],[77.577457821266108,34.165795887480172],[77.57726615132718,34.165858857430365],[77.576914115940369,34.165946703401865],[77.576729716965374,34.166076160964998],[77.576550905511439,34.166103901580065],[77.576349742176617,34.166048419597473],[77.576126227859177,34.166113148697534],[77.575846834737831,34.166237982082187],[77.575567441616499,34.166205617586257],[77.575265696614252,34.166237982082187],[77.574986303492892,34.166168629894244],[77.574807492038943,34.166099278392593],[77.57473218447204,34.166112823885193],[77.574653476781819,34.166134532048758],[77.574486888703944,34.166186545844432],[77.574248007805267,34.166303577696596],[77.574207146137965,34.166337386339599],[77.574159998958564,34.166384199313633],[77.574137996522325,34.166451817264701],[77.574131710111971,34.166498629431985],[77.574150569343033,34.166571448720177],[77.574210289343142,34.166667674350698],[77.574248007805267,34.166810711865736],[77.574235434984558,34.166914738591785],[77.57422286216385,34.167026568034004],[77.574159998958564,34.167127993796925],[77.573882305449743,34.167502608560646],[77.573853170390123,34.167530507765669],[77.573835514901546,34.167542921035952],[77.573778102673401,34.167574008090298],[77.573735669852638,34.167585710793169],[77.573690093826713,34.167585710793169],[77.573616229852476,34.167570106693503],[77.573545901647208,34.167542908400463],[77.573488880186218,34.167527181654101],[77.573464642741527,34.167521578177784],[77.573418560964086,34.167514982441922],[77.573362787263065,34.167509141119893],[77.573301426040928,34.167511148679523]]]},"properties":{"objectid":10113,"id":"10073","name":null,"code":"4","town":"Leh","district":"Leh Ladakh","state":"Ladakh","st_area(shape)":1457515.5653343054,"st_perimeter(shape)":6765.0803246788155}},{"type":"Feature","id":10114,"geometry":{"type":"Polygon","coordinates":[[[77.590782470790018,34.167460879401503],[77.590600629318601,34.168291439865712],[77.58647153119999,34.166649365311287],[77.586016707883445,34.16696972870345],[77.585897690989768,34.167011391211041],[77.585744342282553,34.167064416799171],[77.585501730680519,34.167164785588959],[77.585348381973304,34.167244322699212],[77.58530718433606,34.167274622743378],[77.585256830171119,34.167310603567117],[77.585174433998304,34.167388247440456],[77.585101192556564,34.167469678181121],[77.585046262373581,34.167532171936358],[77.584936400210964,34.167568152650318],[77.584821961131979,34.167571940327711],[77.584751008597578,34.167537852711511],[77.584634279712944,34.167456422036665],[77.584542728809041,34.167376885126259],[77.584504079692266,34.167313633123683],[77.584290444148039,34.166961551245578],[77.584054705556241,34.166662472927896],[77.583749818247128,34.166392000730148],[77.583624090938272,34.166282771913721],[77.583624090938272,34.166183945118263],[77.583633520553803,34.166033104348919],[77.583661809400425,34.165908270661227],[77.583702670169444,34.165793839742605],[77.583969839914715,34.165297102479286],[77.584038990428638,34.165169666945786],[77.584180432865068,34.165076040368078],[77.58426529850658,34.165044831237964],[77.584230047716559,34.164797409205072],[77.585517656013863,34.164774842198383],[77.585556945629449,34.162531671997819],[77.585561856719124,34.162210633932261],[77.585306474666979,34.162157804503096],[77.584965828121341,34.162129352727653],[77.584780076283522,34.162157791123462],[77.584570395123194,34.162182976775441],[77.58438100690509,34.162224953093094],[77.584215291989665,34.162247340156661],[77.584025902873265,34.162255735118144],[77.583843278070944,34.162261331510926],[77.583738437490794,34.162244541588244],[77.58361330576497,34.162196968883642],[77.583423917546881,34.162152194723816],[77.58335966015629,34.162124210490241],[77.583312312652623,34.162087831270057],[77.58327511162004,34.162059847758428],[77.583251438317376,34.161984290669821],[77.583251438317376,34.161908734256855],[77.583258201733159,34.161838774197072],[77.583264966047224,34.161771611920237],[77.5832683482043,34.161710047505856],[77.583258201733159,34.16164568371498],[77.583200708656662,34.161575723437217],[77.583126306591552,34.161525351763508],[77.582963972934877,34.161458189980628],[77.5827914937054,34.161410616832946],[77.582520180031707,34.161396163736555],[77.582531084680951,34.160901303505561],[77.582551375826583,34.160713808118174],[77.582558140140648,34.160576684584179],[77.58253784809672,34.160411576026263],[77.582504029221198,34.160238071984217],[77.582416098527943,34.15995822511664],[77.582382127837135,34.15989043174131],[77.582311933480838,34.159762079693053],[77.58229096680212,34.1596419977908],[77.582294348959152,34.159434910464526],[77.582311257947751,34.159314575362245],[77.582351841137353,34.159197039501386],[77.582541977652085,34.15896558884404],[77.582592038966226,34.158898080858101],[77.58307928607465,34.158520090295454],[77.583131469209505,34.158428968850558],[77.583144136353312,34.158360833795001],[77.583308931393873,34.158186777691903],[77.583434063119697,34.158024463169141],[77.583538902801536,34.157862148334303],[77.583609923607909,34.157769796676746],[77.583691090885409,34.157610279331202],[77.5837824028374,34.157405985751033],[77.583910143270828,34.15721868925506],[77.583897367430836,34.157262207530096],[77.583990405046492,34.15736119269684],[77.584050214878118,34.157460177004175],[77.584335972563267,34.157795625149433],[77.584628375984877,34.157894609690885],[77.5848543238384,34.157933104060838],[77.585053689644354,34.157927604760026],[77.585316315710912,34.157971742623083],[77.58544353332482,34.158021046737794],[77.585581272007346,34.158156850519973],[77.585713150080934,34.158409055371571],[77.585859680575155,34.158593358755155],[77.58607947676559,34.159075941393681],[77.586173256389685,34.159265092858327],[77.586428218928575,34.159519720647566],[77.587052440253188,34.159929547370361],[77.587928692913934,34.160540645884168],[77.588336048352588,34.160710394768955],[77.588769779226254,34.160821944020228],[77.589267983086216,34.160918943314002],[77.589713436076053,34.160955317834613],[77.590088554572361,34.160962592736823],[77.590475396083178,34.16097714253943],[77.590877082254053,34.160967589353703],[77.590878356065105,34.161293142612131],[77.590853896736562,34.161437545047058],[77.590826671495236,34.161546771212791],[77.590787418710605,34.161704250381121],[77.590750413510762,34.161800173826876],[77.590709290433693,34.161876597042188],[77.590601203342075,34.162077462795459],[77.590564940150671,34.162179121958125],[77.59046602395982,34.162549857797686],[77.590451270927886,34.162688888428058],[77.590819611635411,34.163006369447359],[77.590777558802017,34.166363718361943],[77.590782470790018,34.167460879401503]]]},"properties":{"objectid":10114,"id":"10074","name":null,"code":"13","town":"Leh","district":"Leh Ladakh","state":"Ladakh","st_area(shape)":799453.76399802556,"st_perimeter(shape)":4723.9383372909406}},{"type":"Feature","id":10115,"geometry":{"type":"Polygon","coordinates":[[[77.597810408075972,34.169171608615358],[77.597530468778928,34.169228496261013],[77.597211240764608,34.169277257919028],[77.597122838455817,34.16930976542767],[77.597039348134984,34.169366653723472],[77.596916568198594,34.169488556872999],[77.596594764714354,34.169723312139837],[77.596064768578174,34.169910664882636],[77.59584474601229,34.169988682445485],[77.595656156396473,34.170027691571484],[77.595429847420206,34.170017289139651],[77.59510484323863,34.170013232517896],[77.594663688687447,34.169826759261582],[77.591859372050905,34.168242996496197],[77.591303183736002,34.168291437635951],[77.590600629318601,34.168291439865712],[77.590782470790018,34.167460879401503],[77.590777558802017,34.166363718361943],[77.590819611635411,34.163006369447359],[77.590451270927886,34.162688888428058],[77.59046602395982,34.162549857797686],[77.590564940150671,34.162179121958125],[77.590601203342075,34.162077462795459],[77.590709290433693,34.161876597042188],[77.590750413510762,34.161800173826876],[77.590787418710605,34.161704250381121],[77.590826671495236,34.161546771212791],[77.590853896736562,34.161437545047058],[77.590878356065105,34.161293142612131],[77.590877082254053,34.160967589353703],[77.591123120030574,34.160942108239873],[77.591354177501444,34.160902854078394],[77.591443047832485,34.160885987323248],[77.591741334320901,34.160847141963856],[77.591862346372821,34.160841940182429],[77.592318529738719,34.160822853849062],[77.592582682941284,34.160826933955519],[77.593367926382285,34.160867948343089],[77.594770370813933,34.16092240422747],[77.596494204606486,34.160967106193816],[77.596273753544196,34.160683015124405],[77.596209775529672,34.160599279472812],[77.596458696898253,34.160533494337812],[77.596837756303785,34.160511546126003],[77.596831895694848,34.160283597178001],[77.597331854862858,34.160059779048005],[77.598493822089594,34.159543582462653],[77.599486765007427,34.160241196197418],[77.601172893812574,34.160442728146293],[77.601037071236576,34.162332546672694],[77.5994680306422,34.162504526342985],[77.599130803982845,34.163016092619216],[77.599842726032023,34.163543157323879],[77.600142482164244,34.164752293767876],[77.600854403315125,34.166348947248267],[77.602730115272777,34.168086012644174],[77.602753440029105,34.168329494689438],[77.602758675410584,34.168455432249452],[77.602833790738018,34.169401083238796],[77.602209922451294,34.170011567652942],[77.601795526017455,34.169893397088671],[77.600656179267901,34.169261030545435],[77.600389396696514,34.16932917241256],[77.600295172406362,34.169324579131725],[77.600170289513855,34.169296883426767],[77.600071156829003,34.169278774891836],[77.599902501727684,34.169270253532964],[77.599830404739592,34.169293687453468],[77.599633425757347,34.16936186125394],[77.59931027749515,34.169454533950187],[77.599194407399906,34.169453468875474],[77.599038210134935,34.169419478641458],[77.598733714491274,34.169326019548961],[77.598276972373299,34.169216306213698],[77.598139459167911,34.169175671966748],[77.597943010191699,34.169151291111916],[77.597810408075972,34.169171608615358]]]},"properties":{"objectid":10115,"id":"10075","name":null,"code":"12","town":"Leh","district":"Leh Ladakh","state":"Ladakh","st_area(shape)":1347595.1324442672,"st_perimeter(shape)":5391.3632413897958}},{"type":"Feature","id":10116,"geometry":{"type":"Polygon","coordinates":[[[77.585771699576227,34.147559206291071],[77.584755881059664,34.150504487341472],[77.585171536033215,34.150636873099593],[77.585112341547571,34.150997998994249],[77.584625892143109,34.150881371158327],[77.584381023074769,34.150825320126742],[77.584007747023065,34.150733564425238],[77.583630848065837,34.150669158814203],[77.583406880997515,34.150642345368851],[77.583403973150951,34.150570860152747],[77.583436447248459,34.150076662802412],[77.583464816045137,34.149892835206352],[77.583564023290151,34.149479446352451],[77.583740613210395,34.148920268435965],[77.583269420792732,34.148591752480996],[77.582296823817757,34.148028952611483],[77.580411098339667,34.146940617290653],[77.580494384742892,34.146848406840327],[77.584887632470839,34.141699107044161],[77.585943365830389,34.140225248888854],[77.586557244851136,34.139031236062728],[77.586788471205267,34.138504162620194],[77.586989310248299,34.137923957275106],[77.58717802203499,34.137868173494539],[77.587702595940058,34.137976719332158],[77.588060040083207,34.13897192279677],[77.58837811376236,34.142047854131306],[77.589342331252396,34.142542009233992],[77.589560682053531,34.142653912590028],[77.590343876437359,34.142964190248179],[77.59259366125238,34.143897186584219],[77.590262418105738,34.146249698504093],[77.590003020584263,34.146464599116932],[77.588894903765535,34.145987170157483],[77.587440308538376,34.147559226363981],[77.586520905302962,34.147537171441805],[77.585771699576227,34.147559206291071]]]},"properties":{"objectid":10116,"id":"10076","name":null,"code":"10","town":"Leh","district":"Leh Ladakh","state":"Ladakh","st_area(shape)":890804.95879444934,"st_perimeter(shape)":5034.0542174686707}}]}