{"type": "FeatureCollection", "name": "noida_wards", "crs": {"type": "name", "properties": {"name": "urn:ogc:def:crs:OGC:1.3:CRS84"}}, "features": [{"type": "Feature", "properties": {"name": "Sector 20", "city": "noida", "unit": "Police station area"}, "geometry": {"type": "Polygon", "coordinates": [[[77.31999999999998, 28.61999999999999], [77.295, 28.600000000000005], [77.288, 28.559999999999985], [77.28886597938343, 28.55257731957057], [77.30899999996426, 28.56599999995779], [77.33918181818555, 28.596181818179097], [77.32289385475015, 28.621240223464348], [77.31999999999998, 28.61999999999999]]]}}, {"type": "Feature", "properties": {"name": "Sector 24", "city": "noida", "unit": "Police station area"}, "geometry": {"type": "Polygon", "coordinates": [[[77.347759493676, 28.589033755265646], [77.33918181817987, 28.5961818181791], [77.30899999998509, 28.565999999984314], [77.34665517241874, 28.575413793092704], [77.347759493676, 28.589033755265646]]]}}, {"type": "Feature", "properties": {"name": "Sector 39", "city": "noida", "unit": "Police station area"}, "geometry": {"type": "Polygon", "coordinates": [[[77.295, 28.500000000000007], [77.31064928057282, 28.493293165468796], [77.33781499051182, 28.519505692602916], [77.35049999999842, 28.548500000000857], [77.34665517241991, 28.575413793050366], [77.30899999990551, 28.565999999921786], [77.28886597938309, 28.55257731957351], [77.295, 28.500000000000007]]]}}, {"type": "Feature", "properties": {"name": "Sector 49", "city": "noida", "unit": "Police station area"}, "geometry": {"type": "Polygon", "coordinates": [[[77.37892857142324, 28.562714285713263], [77.37956074765813, 28.571880841119203], [77.35587571157807, 28.590490512324994], [77.34775949368068, 28.58903375526649], [77.34665517242168, 28.575413793072073], [77.35050000000295, 28.548500000003113], [77.37892857142324, 28.562714285713263]]]}}, {"type": "Feature", "properties": {"name": "Sector 58", "city": "noida", "unit": "Police station area"}, "geometry": {"type": "Polygon", "coordinates": [[[77.355, 28.635], [77.32289385474904, 28.621240223463875], [77.33918181817576, 28.596181818191987], [77.34775949368102, 28.58903375527093], [77.35587571157353, 28.590490512328557], [77.36984391534341, 28.60054761904287], [77.3763157894742, 28.629671052631448], [77.355, 28.635]]]}}, {"type": "Feature", "properties": {"name": "Phase 2", "city": "noida", "unit": "Police station area"}, "geometry": {"type": "Polygon", "coordinates": [[[77.39499999999998, 28.625000000000004], [77.37631578948618, 28.629671052628453], [77.36984391535664, 28.600547619045564], [77.39461316872439, 28.588814814818736], [77.41976470587966, 28.59528235294438], [77.39499999999998, 28.625000000000004]]]}}, {"type": "Feature", "properties": {"name": "Phase 3", "city": "noida", "unit": "Police station area"}, "geometry": {"type": "Polygon", "coordinates": [[[77.39461316871468, 28.588814814811368], [77.36984391534853, 28.600547619037446], [77.35587571158227, 28.590490512325747], [77.3795607476584, 28.571880841123047], [77.39461316871468, 28.588814814811368]]]}}, {"type": "Feature", "properties": {"name": "Sector 113", "city": "noida", "unit": "Police station area"}, "geometry": {"type": "Polygon", "coordinates": [[[77.43, 28.560000000000013], [77.42000000000003, 28.594999999999942], [77.41976470587966, 28.59528235294438], [77.39461316871211, 28.588814814815578], [77.37956074765256, 28.57188084112358], [77.37892857141716, 28.56271428571022], [77.41982258062764, 28.53545161290323], [77.43, 28.533924999997375], [77.43, 28.560000000000013]]]}}, {"type": "Feature", "properties": {"name": "Sector 126", "city": "noida", "unit": "Police station area"}, "geometry": {"type": "Polygon", "coordinates": [[[77.4198225806359, 28.535451612904836], [77.37892857142326, 28.562714285713266], [77.35050000000297, 28.54850000000312], [77.33781499051571, 28.51950569260368], [77.4198225806359, 28.535451612904836]]]}}, {"type": "Feature", "properties": {"name": "Expressway", "city": "noida", "unit": "Police station area"}, "geometry": {"type": "Polygon", "coordinates": [[[77.43, 28.52], [77.43, 28.53392500000211], [77.41982258063221, 28.53545161290728], [77.3378149905172, 28.519505692607122], [77.31064928057354, 28.49329316546849], [77.33000000000001, 28.485], [77.395, 28.49], [77.43, 28.52]]]}}]}