{
  "type": "FeatureCollection",
  "metadata": {
    "city": "mumbai",
    "kind": "hospital",
    "source": "manually compiled from public hospital websites; coords approximate",
    "license": "CC0 — placeholder data, replace before production",
    "updated": "2026-05-16",
    "todo": "Verify each coord against an authoritative source (OSM, hospital website) and expand to ~30 facilities covering all 24 BMC wards."
  },
  "features": [
    {
      "type": "Feature",
      "properties": {
        "name": "Tata Memorial Hospital",
        "kind": "hospital",
        "category": "cancer",
        "ward_hint": "Parel"
      },
      "geometry": { "type": "Point", "coordinates": [72.8423, 19.0048] }
    },
    {
      "type": "Feature",
      "properties": {
        "name": "KEM Hospital",
        "kind": "hospital",
        "category": "public_general",
        "ward_hint": "Parel"
      },
      "geometry": { "type": "Point", "coordinates": [72.8420, 19.0061] }
    },
    {
      "type": "Feature",
      "properties": {
        "name": "Jaslok Hospital",
        "kind": "hospital",
        "category": "private_general",
        "ward_hint": "Pedder Road"
      },
      "geometry": { "type": "Point", "coordinates": [72.8089, 18.9697] }
    },
    {
      "type": "Feature",
      "properties": {
        "name": "Lilavati Hospital",
        "kind": "hospital",
        "category": "private_general",
        "ward_hint": "Bandra West"
      },
      "geometry": { "type": "Point", "coordinates": [72.8264, 19.0509] }
    },
    {
      "type": "Feature",
      "properties": {
        "name": "Sion Hospital (LTMG)",
        "kind": "hospital",
        "category": "public_general",
        "ward_hint": "Sion"
      },
      "geometry": { "type": "Point", "coordinates": [72.8636, 19.0432] }
    }
  ]
}
