{
  "type": "FeatureCollection",
  "metadata": {
    "city": "mumbai",
    "kind": "metro_station",
    "source": "MMRDA / Mumbai Metro public station list; coords approximate",
    "license": "CC0 — placeholder data, replace before production",
    "updated": "2026-05-16",
    "todo": "Cover Lines 1, 2A, 3, 7 currently operational. Add fields: line, interchange (bool), opened. Source authoritative coords from OSM `railway=station, station=subway` export for Mumbai."
  },
  "features": [
    {
      "type": "Feature",
      "properties": {
        "name": "Versova",
        "kind": "metro_station",
        "line": "1"
      },
      "geometry": { "type": "Point", "coordinates": [72.8147, 19.1310] }
    },
    {
      "type": "Feature",
      "properties": {
        "name": "Andheri",
        "kind": "metro_station",
        "line": "1",
        "interchange": true
      },
      "geometry": { "type": "Point", "coordinates": [72.8467, 19.1197] }
    },
    {
      "type": "Feature",
      "properties": {
        "name": "Western Express Highway",
        "kind": "metro_station",
        "line": "1"
      },
      "geometry": { "type": "Point", "coordinates": [72.8606, 19.1230] }
    },
    {
      "type": "Feature",
      "properties": {
        "name": "Saki Naka",
        "kind": "metro_station",
        "line": "1"
      },
      "geometry": { "type": "Point", "coordinates": [72.8889, 19.1037] }
    },
    {
      "type": "Feature",
      "properties": {
        "name": "Ghatkopar",
        "kind": "metro_station",
        "line": "1",
        "interchange": true
      },
      "geometry": { "type": "Point", "coordinates": [72.9081, 19.0863] }
    }
  ]
}
